{
"type": "FeatureCollection",
"name": "zcta_boundaries",
"crs": { "type": "name", "properties": { "name": "urn:ogc:def:crs:OGC:1.3:CRS84" } },
"features": [
{ "type": "Feature", "properties": { "ZIP": "20109" }, "geometry": { "type": "Polygon", "coordinates": [ [ [ -77.597867, 38.799847 ], [ -77.593955, 38.801066 ], [ -77.573282, 38.806178 ], [ -77.572358, 38.820755 ], [ -77.563646, 38.820805 ], [ -77.561741, 38.821884 ], [ -77.563973, 38.824368 ], [ -77.565698, 38.82511 ], [ -77.566089, 38.826617 ], [ -77.568588, 38.828353 ], [ -77.566725, 38.831601 ], [ -77.56716, 38.833541 ], [ -77.563682, 38.834079 ], [ -77.562339, 38.835196 ], [ -77.562369, 38.837194 ], [ -77.552676, 38.835421 ], [ -77.550644, 38.838621 ], [ -77.544892, 38.839796 ], [ -77.54587, 38.84045 ], [ -77.54504, 38.843566 ], [ -77.548019, 38.845034 ], [ -77.546194, 38.845215 ], [ -77.545155, 38.845048 ], [ -77.545071, 38.847688 ], [ -77.546066, 38.849227 ], [ -77.54408, 38.85025 ], [ -77.538383, 38.847685 ], [ -77.535991, 38.847368 ], [ -77.534958, 38.846787 ], [ -77.536976, 38.842752 ], [ -77.53612, 38.840686 ], [ -77.534911, 38.83935 ], [ -77.532462, 38.83863 ], [ -77.529616, 38.837011 ], [ -77.527627, 38.83744 ], [ -77.523564, 38.836937 ], [ -77.521951, 38.837311 ], [ -77.511211, 38.841368 ], [ -77.508812, 38.84107 ], [ -77.508648, 38.838957 ], [ -77.507551, 38.837518 ], [ -77.508028, 38.8368 ], [ -77.510497, 38.836522 ], [ -77.510992, 38.835633 ], [ -77.510473, 38.83382 ], [ -77.512368, 38.830403 ], [ -77.50916, 38.828059 ], [ -77.50394, 38.825639 ], [ -77.503886, 38.824041 ], [ -77.5062, 38.821451 ], [ -77.506392, 38.820291 ], [ -77.505528, 38.818578 ], [ -77.505238, 38.816448 ], [ -77.499877, 38.813573 ], [ -77.49721, 38.813259 ], [ -77.491245, 38.811367 ], [ -77.490341, 38.810254 ], [ -77.490113, 38.810033 ], [ -77.489228, 38.808505 ], [ -77.489735, 38.805862 ], [ -77.490392, 38.804804 ], [ -77.494213, 38.800416 ], [ -77.494359, 38.798917 ], [ -77.492757, 38.797663 ], [ -77.491526, 38.797581 ], [ -77.490372, 38.797397 ], [ -77.488621, 38.796885 ], [ -77.487817, 38.796853 ], [ -77.486969, 38.796547 ], [ -77.486476, 38.79652 ], [ -77.484955, 38.797096 ], [ -77.483297, 38.797156 ], [ -77.480429, 38.796569 ], [ -77.480325, 38.798138 ], [ -77.479708, 38.799025 ], [ -77.476488, 38.799334 ], [ -77.476194, 38.799228 ], [ -77.475995, 38.799065 ], [ -77.475912, 38.798874 ], [ -77.475969, 38.797923 ], [ -77.475773, 38.797506 ], [ -77.474435, 38.796614 ], [ -77.473459, 38.796389 ], [ -77.472535, 38.796431 ], [ -77.471895, 38.796355 ], [ -77.47053, 38.795739 ], [ -77.470226, 38.795747 ], [ -77.469838, 38.795899 ], [ -77.469081, 38.795913 ], [ -77.469185, 38.795864 ], [ -77.471537, 38.793418 ], [ -77.473306, 38.793006 ], [ -77.475742, 38.791648 ], [ -77.476121, 38.791239 ], [ -77.476837, 38.789812 ], [ -77.481881, 38.785831 ], [ -77.483425, 38.784707 ], [ -77.482204, 38.784176 ], [ -77.484838, 38.780792 ], [ -77.486925, 38.78187 ], [ -77.487243, 38.781298 ], [ -77.490042, 38.777031 ], [ -77.490323, 38.776641 ], [ -77.491097, 38.774691 ], [ -77.494438, 38.770267 ], [ -77.495598, 38.770462 ], [ -77.50127, 38.76132 ], [ -77.502751, 38.759378 ], [ -77.50305, 38.759022 ], [ -77.511628, 38.748827 ], [ -77.516577, 38.75067 ], [ -77.518187, 38.753389 ], [ -77.519818, 38.754189 ], [ -77.525093, 38.755219 ], [ -77.5282, 38.754581 ], [ -77.524261, 38.747476 ], [ -77.522778, 38.745553 ], [ -77.519009, 38.742067 ], [ -77.52257, 38.740854 ], [ -77.530283, 38.738285 ], [ -77.533832, 38.737364 ], [ -77.534545, 38.737151 ], [ -77.536113, 38.737297 ], [ -77.53767, 38.740454 ], [ -77.539357, 38.741554 ], [ -77.540681, 38.744074 ], [ -77.542036, 38.745896 ], [ -77.545447, 38.744585 ], [ -77.547798, 38.748181 ], [ -77.550131, 38.748311 ], [ -77.550662, 38.748316 ], [ -77.552914, 38.748657 ], [ -77.554183, 38.750022 ], [ -77.551667, 38.749724 ], [ -77.549799, 38.750424 ], [ -77.548971, 38.752368 ], [ -77.547188, 38.753527 ], [ -77.547262, 38.757964 ], [ -77.546774, 38.760226 ], [ -77.546977, 38.760971 ], [ -77.548033, 38.761845 ], [ -77.548256, 38.762011 ], [ -77.550492, 38.760157 ], [ -77.554039, 38.762709 ], [ -77.554021, 38.764425 ], [ -77.553664, 38.765359 ], [ -77.552748, 38.766835 ], [ -77.560215, 38.767383 ], [ -77.555344, 38.773083 ], [ -77.559221, 38.77478 ], [ -77.560599, 38.776838 ], [ -77.565913, 38.777886 ], [ -77.565848, 38.778302 ], [ -77.566322, 38.783232 ], [ -77.569928, 38.782832 ], [ -77.568341, 38.785355 ], [ -77.565476, 38.790452 ], [ -77.565146, 38.791363 ], [ -77.56791, 38.791644 ], [ -77.578593, 38.795589 ], [ -77.585584, 38.797316 ], [ -77.585483, 38.797815 ], [ -77.598733, 38.799632 ], [ -77.597867, 38.799847 ] ] ] } },
{ "type": "Feature", "properties": { "ZIP": "20110" }, "geometry": { "type": "Polygon", "coordinates": [ [ [ -77.533832, 38.737364 ], [ -77.530283, 38.738285 ], [ -77.52257, 38.740854 ], [ -77.519009, 38.742067 ], [ -77.522778, 38.745553 ], [ -77.524261, 38.747476 ], [ -77.5282, 38.754581 ], [ -77.525093, 38.755219 ], [ -77.519818, 38.754189 ], [ -77.518187, 38.753389 ], [ -77.516577, 38.75067 ], [ -77.511628, 38.748827 ], [ -77.50305, 38.759022 ], [ -77.502751, 38.759378 ], [ -77.50127, 38.76132 ], [ -77.495598, 38.770462 ], [ -77.494438, 38.770267 ], [ -77.491097, 38.774691 ], [ -77.490323, 38.776641 ], [ -77.490042, 38.777031 ], [ -77.487243, 38.781298 ], [ -77.486925, 38.78187 ], [ -77.484838, 38.780792 ], [ -77.482204, 38.784176 ], [ -77.481091, 38.784191 ], [ -77.478652, 38.781239 ], [ -77.478499, 38.778302 ], [ -77.475584, 38.781112 ], [ -77.474607, 38.78116 ], [ -77.469023, 38.7781 ], [ -77.465779, 38.77632 ], [ -77.459611, 38.772921 ], [ -77.459209, 38.772566 ], [ -77.458695, 38.772319 ], [ -77.454562, 38.770155 ], [ -77.453591, 38.769031 ], [ -77.44855, 38.766171 ], [ -77.448848, 38.765734 ], [ -77.451265, 38.762936 ], [ -77.447759, 38.760887 ], [ -77.449525, 38.753503 ], [ -77.450195, 38.753282 ], [ -77.449231, 38.751208 ], [ -77.449365, 38.748858 ], [ -77.451288, 38.740035 ], [ -77.451321, 38.73991 ], [ -77.451642, 38.738337 ], [ -77.453552, 38.73852 ], [ -77.453992, 38.735963 ], [ -77.453643, 38.73552 ], [ -77.455929, 38.733517 ], [ -77.457147, 38.731004 ], [ -77.457337, 38.728166 ], [ -77.460936, 38.722913 ], [ -77.463134, 38.724176 ], [ -77.464671, 38.726854 ], [ -77.470484, 38.726151 ], [ -77.471177, 38.727665 ], [ -77.472573, 38.727328 ], [ -77.473173, 38.728355 ], [ -77.480314, 38.730732 ], [ -77.481312, 38.728621 ], [ -77.481416, 38.728454 ], [ -77.482839, 38.728989 ], [ -77.483995, 38.728365 ], [ -77.486803, 38.727641 ], [ -77.488946, 38.726162 ], [ -77.490198, 38.724449 ], [ -77.491575, 38.724139 ], [ -77.489639, 38.723393 ], [ -77.485736, 38.720861 ], [ -77.481955, 38.720129 ], [ -77.481994, 38.718858 ], [ -77.482404, 38.718137 ], [ -77.482541, 38.717983 ], [ -77.484563, 38.718614 ], [ -77.496433, 38.723511 ], [ -77.496955, 38.722415 ], [ -77.497717, 38.721475 ], [ -77.498251, 38.72135 ], [ -77.49844, 38.721346 ], [ -77.498794, 38.721437 ], [ -77.499033, 38.721459 ], [ -77.499378, 38.72135 ], [ -77.502888, 38.718213 ], [ -77.503486, 38.716632 ], [ -77.502526, 38.715507 ], [ -77.502518, 38.712761 ], [ -77.503979, 38.709762 ], [ -77.505661, 38.708218 ], [ -77.506239, 38.706106 ], [ -77.513349, 38.716163 ], [ -77.515412, 38.715365 ], [ -77.517223, 38.715365 ], [ -77.519216, 38.716048 ], [ -77.521102, 38.717592 ], [ -77.523858, 38.717623 ], [ -77.523891, 38.718138 ], [ -77.522771, 38.719081 ], [ -77.521226, 38.722019 ], [ -77.521516, 38.722994 ], [ -77.524369, 38.723929 ], [ -77.52437, 38.724005 ], [ -77.524816, 38.724348 ], [ -77.524463, 38.727337 ], [ -77.526087, 38.729617 ], [ -77.531347, 38.726464 ], [ -77.530913, 38.728775 ], [ -77.531142, 38.732549 ], [ -77.532941, 38.737572 ], [ -77.533832, 38.737364 ] ] ] } },
{ "type": "Feature", "properties": { "ZIP": "20111" }, "geometry": { "type": "Polygon", "coordinates": [ [ [ -77.483425, 38.784707 ], [ -77.481881, 38.785831 ], [ -77.476837, 38.789812 ], [ -77.476121, 38.791239 ], [ -77.475742, 38.791648 ], [ -77.473306, 38.793006 ], [ -77.471537, 38.793418 ], [ -77.469185, 38.795864 ], [ -77.469081, 38.795913 ], [ -77.468234, 38.796299 ], [ -77.466075, 38.796623 ], [ -77.464999, 38.796468 ], [ -77.464128, 38.796171 ], [ -77.46237, 38.795492 ], [ -77.459657, 38.797582 ], [ -77.458892, 38.797698 ], [ -77.457743, 38.797291 ], [ -77.456593, 38.795862 ], [ -77.456009, 38.796102 ], [ -77.4523, 38.796334 ], [ -77.450029, 38.800561 ], [ -77.450586, 38.802227 ], [ -77.449042, 38.803087 ], [ -77.448935, 38.80317 ], [ -77.447309, 38.803897 ], [ -77.445603, 38.803679 ], [ -77.443539, 38.80377 ], [ -77.443084, 38.803653 ], [ -77.44157, 38.801357 ], [ -77.439393, 38.798976 ], [ -77.437824, 38.794948 ], [ -77.436388, 38.7926 ], [ -77.43665, 38.790943 ], [ -77.435579, 38.789522 ], [ -77.434303, 38.788573 ], [ -77.433251, 38.787456 ], [ -77.432995, 38.78695 ], [ -77.433286, 38.785112 ], [ -77.433316, 38.779959 ], [ -77.432739, 38.77976 ], [ -77.43058, 38.781135 ], [ -77.429956, 38.781155 ], [ -77.425719, 38.778538 ], [ -77.421805, 38.776844 ], [ -77.421403, 38.776036 ], [ -77.41764, 38.77471 ], [ -77.41352, 38.772681 ], [ -77.412629, 38.771712 ], [ -77.415338, 38.769487 ], [ -77.415815, 38.767558 ], [ -77.412778, 38.765281 ], [ -77.41278, 38.762743 ], [ -77.413664, 38.761902 ], [ -77.415348, 38.762195 ], [ -77.417186, 38.761261 ], [ -77.415945, 38.758188 ], [ -77.414309, 38.75766 ], [ -77.406682, 38.753959 ], [ -77.406841, 38.752481 ], [ -77.409839, 38.750014 ], [ -77.410385, 38.749558 ], [ -77.41163, 38.747505 ], [ -77.411817, 38.74503 ], [ -77.410816, 38.744659 ], [ -77.40844, 38.745037 ], [ -77.406879, 38.746035 ], [ -77.404527, 38.745847 ], [ -77.40375, 38.746566 ], [ -77.405132, 38.749389 ], [ -77.403995, 38.751697 ], [ -77.401357, 38.752249 ], [ -77.397495, 38.749189 ], [ -77.393778, 38.749743 ], [ -77.388128, 38.748716 ], [ -77.388105, 38.746915 ], [ -77.389813, 38.744093 ], [ -77.389708, 38.743009 ], [ -77.387241, 38.741842 ], [ -77.385762, 38.741416 ], [ -77.3806, 38.737542 ], [ -77.378106, 38.734203 ], [ -77.377441, 38.729558 ], [ -77.379301, 38.726824 ], [ -77.380384, 38.72428 ], [ -77.380526, 38.722537 ], [ -77.381867, 38.722481 ], [ -77.384401, 38.721424 ], [ -77.386403, 38.723115 ], [ -77.387321, 38.724621 ], [ -77.386182, 38.728403 ], [ -77.387576, 38.731247 ], [ -77.391325, 38.731002 ], [ -77.394875, 38.726723 ], [ -77.395911, 38.721069 ], [ -77.393684, 38.719572 ], [ -77.393605, 38.717982 ], [ -77.39373, 38.715661 ], [ -77.394814, 38.71484 ], [ -77.398381, 38.713708 ], [ -77.399484, 38.713865 ], [ -77.399633, 38.717199 ], [ -77.40064, 38.719937 ], [ -77.402888, 38.721615 ], [ -77.40384, 38.721379 ], [ -77.406538, 38.718172 ], [ -77.407592, 38.716014 ], [ -77.408965, 38.714723 ], [ -77.410068, 38.710242 ], [ -77.410151, 38.710049 ], [ -77.410509, 38.708313 ], [ -77.411814, 38.708249 ], [ -77.414507, 38.710497 ], [ -77.415141, 38.712581 ], [ -77.419729, 38.712639 ], [ -77.419547, 38.710827 ], [ -77.415954, 38.707905 ], [ -77.415409, 38.705611 ], [ -77.422099, 38.703946 ], [ -77.423069, 38.703887 ], [ -77.427315, 38.704984 ], [ -77.429505, 38.705913 ], [ -77.43132, 38.705691 ], [ -77.432145, 38.703035 ], [ -77.433357, 38.702399 ], [ -77.434965, 38.703975 ], [ -77.437032, 38.705122 ], [ -77.441292, 38.705962 ], [ -77.446202, 38.705465 ], [ -77.447888, 38.707482 ], [ -77.449168, 38.708254 ], [ -77.448442, 38.709077 ], [ -77.449641, 38.709378 ], [ -77.449842, 38.712384 ], [ -77.448851, 38.713563 ], [ -77.448436, 38.715695 ], [ -77.450162, 38.718357 ], [ -77.45098, 38.718505 ], [ -77.45473, 38.717151 ], [ -77.457845, 38.720403 ], [ -77.454634, 38.722322 ], [ -77.455631, 38.723667 ], [ -77.453529, 38.724653 ], [ -77.452876, 38.723696 ], [ -77.4505, 38.724658 ], [ -77.447488, 38.724973 ], [ -77.448713, 38.726265 ], [ -77.449715, 38.731402 ], [ -77.450508, 38.732098 ], [ -77.450725, 38.732177 ], [ -77.455434, 38.731046 ], [ -77.456008, 38.730065 ], [ -77.457147, 38.731004 ], [ -77.455929, 38.733517 ], [ -77.453643, 38.73552 ], [ -77.453992, 38.735963 ], [ -77.453552, 38.73852 ], [ -77.451642, 38.738337 ], [ -77.451321, 38.73991 ], [ -77.451288, 38.740035 ], [ -77.449365, 38.748858 ], [ -77.449231, 38.751208 ], [ -77.450195, 38.753282 ], [ -77.449525, 38.753503 ], [ -77.447759, 38.760887 ], [ -77.451265, 38.762936 ], [ -77.448848, 38.765734 ], [ -77.44855, 38.766171 ], [ -77.453591, 38.769031 ], [ -77.454562, 38.770155 ], [ -77.458695, 38.772319 ], [ -77.459209, 38.772566 ], [ -77.459611, 38.772921 ], [ -77.465779, 38.77632 ], [ -77.469023, 38.7781 ], [ -77.474607, 38.78116 ], [ -77.475584, 38.781112 ], [ -77.478499, 38.778302 ], [ -77.478652, 38.781239 ], [ -77.481091, 38.784191 ], [ -77.482204, 38.784176 ], [ -77.483425, 38.784707 ] ] ] } },
{ "type": "Feature", "properties": { "ZIP": "20112" }, "geometry": { "type": "Polygon", "coordinates": [ [ [ -77.506239, 38.706106 ], [ -77.505661, 38.708218 ], [ -77.503979, 38.709762 ], [ -77.502518, 38.712761 ], [ -77.502526, 38.715507 ], [ -77.503486, 38.716632 ], [ -77.502888, 38.718213 ], [ -77.499378, 38.72135 ], [ -77.499033, 38.721459 ], [ -77.498794, 38.721437 ], [ -77.49844, 38.721346 ], [ -77.498251, 38.72135 ], [ -77.497717, 38.721475 ], [ -77.496955, 38.722415 ], [ -77.496433, 38.723511 ], [ -77.484563, 38.718614 ], [ -77.482541, 38.717983 ], [ -77.482404, 38.718137 ], [ -77.481994, 38.718858 ], [ -77.481955, 38.720129 ], [ -77.485736, 38.720861 ], [ -77.489639, 38.723393 ], [ -77.491575, 38.724139 ], [ -77.490198, 38.724449 ], [ -77.488946, 38.726162 ], [ -77.486803, 38.727641 ], [ -77.483995, 38.728365 ], [ -77.482839, 38.728989 ], [ -77.481416, 38.728454 ], [ -77.481312, 38.728621 ], [ -77.480314, 38.730732 ], [ -77.473173, 38.728355 ], [ -77.472573, 38.727328 ], [ -77.471177, 38.727665 ], [ -77.470484, 38.726151 ], [ -77.464671, 38.726854 ], [ -77.463134, 38.724176 ], [ -77.460936, 38.722913 ], [ -77.457337, 38.728166 ], [ -77.457147, 38.731004 ], [ -77.456008, 38.730065 ], [ -77.455434, 38.731046 ], [ -77.450725, 38.732177 ], [ -77.450508, 38.732098 ], [ -77.449715, 38.731402 ], [ -77.448713, 38.726265 ], [ -77.447488, 38.724973 ], [ -77.4505, 38.724658 ], [ -77.452876, 38.723696 ], [ -77.453529, 38.724653 ], [ -77.455631, 38.723667 ], [ -77.454634, 38.722322 ], [ -77.457845, 38.720403 ], [ -77.45473, 38.717151 ], [ -77.45098, 38.718505 ], [ -77.450162, 38.718357 ], [ -77.448436, 38.715695 ], [ -77.448851, 38.713563 ], [ -77.449842, 38.712384 ], [ -77.449641, 38.709378 ], [ -77.448442, 38.709077 ], [ -77.449168, 38.708254 ], [ -77.447888, 38.707482 ], [ -77.446202, 38.705465 ], [ -77.441292, 38.705962 ], [ -77.437032, 38.705122 ], [ -77.434965, 38.703975 ], [ -77.433357, 38.702399 ], [ -77.432145, 38.703035 ], [ -77.43132, 38.705691 ], [ -77.429505, 38.705913 ], [ -77.427315, 38.704984 ], [ -77.423069, 38.703887 ], [ -77.422099, 38.703946 ], [ -77.415409, 38.705611 ], [ -77.415954, 38.707905 ], [ -77.419547, 38.710827 ], [ -77.419729, 38.712639 ], [ -77.415141, 38.712581 ], [ -77.414507, 38.710497 ], [ -77.411814, 38.708249 ], [ -77.410509, 38.708313 ], [ -77.410151, 38.710049 ], [ -77.410068, 38.710242 ], [ -77.408965, 38.714723 ], [ -77.407592, 38.716014 ], [ -77.406538, 38.718172 ], [ -77.40384, 38.721379 ], [ -77.402888, 38.721615 ], [ -77.40064, 38.719937 ], [ -77.399633, 38.717199 ], [ -77.399484, 38.713865 ], [ -77.398381, 38.713708 ], [ -77.394814, 38.71484 ], [ -77.39373, 38.715661 ], [ -77.393605, 38.717982 ], [ -77.393684, 38.719572 ], [ -77.395911, 38.721069 ], [ -77.394875, 38.726723 ], [ -77.391325, 38.731002 ], [ -77.387576, 38.731247 ], [ -77.386182, 38.728403 ], [ -77.387321, 38.724621 ], [ -77.386403, 38.723115 ], [ -77.384401, 38.721424 ], [ -77.381867, 38.722481 ], [ -77.380526, 38.722537 ], [ -77.379983, 38.719893 ], [ -77.379052, 38.717948 ], [ -77.374341, 38.712299 ], [ -77.372107, 38.710975 ], [ -77.369871, 38.710243 ], [ -77.36849, 38.710852 ], [ -77.367861, 38.713264 ], [ -77.367091, 38.714083 ], [ -77.363494, 38.715363 ], [ -77.362268, 38.714675 ], [ -77.362204, 38.711881 ], [ -77.361575, 38.711723 ], [ -77.362706, 38.71158 ], [ -77.362829, 38.71468 ], [ -77.365213, 38.714039 ], [ -77.366342, 38.712984 ], [ -77.366928, 38.710994 ], [ -77.368746, 38.70981 ], [ -77.37121, 38.710314 ], [ -77.374341, 38.711723 ], [ -77.377347, 38.708509 ], [ -77.378725, 38.70652 ], [ -77.379076, 38.704437 ], [ -77.37784, 38.702682 ], [ -77.377625, 38.700953 ], [ -77.378616, 38.69954 ], [ -77.379989, 38.700976 ], [ -77.383271, 38.699541 ], [ -77.385555, 38.699851 ], [ -77.387593, 38.698348 ], [ -77.385451, 38.697568 ], [ -77.384123, 38.694519 ], [ -77.382081, 38.692968 ], [ -77.376889, 38.692788 ], [ -77.376082, 38.687477 ], [ -77.376716, 38.6865 ], [ -77.370663, 38.683485 ], [ -77.363369, 38.682242 ], [ -77.360047, 38.681253 ], [ -77.359853, 38.681165 ], [ -77.360379, 38.680538 ], [ -77.363761, 38.678132 ], [ -77.364979, 38.677481 ], [ -77.367046, 38.676695 ], [ -77.368605, 38.676132 ], [ -77.371303, 38.675153 ], [ -77.370444, 38.671793 ], [ -77.383778, 38.667866 ], [ -77.382961, 38.672206 ], [ -77.383318, 38.674446 ], [ -77.38993, 38.673367 ], [ -77.395149, 38.67242 ], [ -77.396108, 38.672107 ], [ -77.396994, 38.671731 ], [ -77.4008, 38.669737 ], [ -77.402553, 38.669021 ], [ -77.401802, 38.667451 ], [ -77.401368, 38.666622 ], [ -77.39994, 38.664917 ], [ -77.397842, 38.665578 ], [ -77.394295, 38.665459 ], [ -77.392695, 38.661445 ], [ -77.396223, 38.661282 ], [ -77.395807, 38.66049 ], [ -77.398045, 38.659724 ], [ -77.397663, 38.659244 ], [ -77.396065, 38.656413 ], [ -77.391044, 38.656673 ], [ -77.388999, 38.652851 ], [ -77.387909, 38.654046 ], [ -77.389072, 38.651132 ], [ -77.386539, 38.649078 ], [ -77.384629, 38.645958 ], [ -77.384748, 38.645907 ], [ -77.387019, 38.649413 ], [ -77.389049, 38.650972 ], [ -77.38985, 38.649411 ], [ -77.391745, 38.649618 ], [ -77.39374, 38.64708 ], [ -77.395128, 38.648193 ], [ -77.398998, 38.646995 ], [ -77.400836, 38.647118 ], [ -77.400965, 38.645395 ], [ -77.395857, 38.644648 ], [ -77.39708, 38.642735 ], [ -77.401201, 38.641373 ], [ -77.403638, 38.639804 ], [ -77.403199, 38.639456 ], [ -77.401186, 38.638932 ], [ -77.399076, 38.636569 ], [ -77.399129, 38.636478 ], [ -77.399569, 38.63517 ], [ -77.397768, 38.632439 ], [ -77.397288, 38.632247 ], [ -77.395001, 38.630474 ], [ -77.394375, 38.628723 ], [ -77.391261, 38.626787 ], [ -77.388728, 38.626724 ], [ -77.386406, 38.624701 ], [ -77.385779, 38.622028 ], [ -77.379815, 38.618695 ], [ -77.378331, 38.617011 ], [ -77.376348, 38.616727 ], [ -77.374185, 38.618007 ], [ -77.372489, 38.617745 ], [ -77.370888, 38.615587 ], [ -77.370553, 38.614419 ], [ -77.371039, 38.611745 ], [ -77.371146, 38.611755 ], [ -77.37118, 38.611571 ], [ -77.38137, 38.612554 ], [ -77.38149, 38.611351 ], [ -77.383395, 38.611297 ], [ -77.384673, 38.610948 ], [ -77.384702, 38.612039 ], [ -77.386798, 38.61208 ], [ -77.388834, 38.6128 ], [ -77.38972, 38.613586 ], [ -77.396355, 38.619038 ], [ -77.398743, 38.620489 ], [ -77.400593, 38.618526 ], [ -77.403923, 38.61965 ], [ -77.408142, 38.618499 ], [ -77.405764, 38.617312 ], [ -77.403209, 38.614608 ], [ -77.40347, 38.613405 ], [ -77.40122, 38.61121 ], [ -77.398798, 38.611007 ], [ -77.399125, 38.607798 ], [ -77.398034, 38.60698 ], [ -77.395521, 38.607004 ], [ -77.394295, 38.605069 ], [ -77.389527, 38.604397 ], [ -77.388363, 38.604987 ], [ -77.387218, 38.602961 ], [ -77.384058, 38.604113 ], [ -77.37817, 38.604722 ], [ -77.376694, 38.603703 ], [ -77.37261, 38.602956 ], [ -77.371329, 38.603795 ], [ -77.369324, 38.603501 ], [ -77.368836, 38.602461 ], [ -77.370606, 38.601994 ], [ -77.370916, 38.60045 ], [ -77.373923, 38.596868 ], [ -77.378076, 38.596812 ], [ -77.380576, 38.597158 ], [ -77.385173, 38.596227 ], [ -77.387919, 38.597147 ], [ -77.390139, 38.596888 ], [ -77.392066, 38.59842 ], [ -77.39384, 38.599044 ], [ -77.397266, 38.598928 ], [ -77.399589, 38.598074 ], [ -77.4013, 38.598396 ], [ -77.404774, 38.597677 ], [ -77.40529, 38.598596 ], [ -77.407431, 38.599003 ], [ -77.418219, 38.603669 ], [ -77.422813, 38.605977 ], [ -77.42335, 38.606702 ], [ -77.426639, 38.608345 ], [ -77.429968, 38.612066 ], [ -77.433136, 38.613811 ], [ -77.433772, 38.615539 ], [ -77.435135, 38.617032 ], [ -77.436099, 38.619459 ], [ -77.436895, 38.623663 ], [ -77.437439, 38.624752 ], [ -77.437702, 38.625427 ], [ -77.438789, 38.625606 ], [ -77.440217, 38.625622 ], [ -77.440123, 38.631823 ], [ -77.442812, 38.630957 ], [ -77.447152, 38.632479 ], [ -77.452542, 38.631618 ], [ -77.454367, 38.631775 ], [ -77.455709, 38.635649 ], [ -77.458043, 38.638356 ], [ -77.452486, 38.641949 ], [ -77.45259, 38.644293 ], [ -77.459669, 38.646 ], [ -77.461105, 38.646787 ], [ -77.463799, 38.649364 ], [ -77.466117, 38.653038 ], [ -77.464323, 38.653363 ], [ -77.456787, 38.652966 ], [ -77.456394, 38.654337 ], [ -77.456487, 38.656084 ], [ -77.45763, 38.657549 ], [ -77.45656, 38.659257 ], [ -77.458297, 38.659649 ], [ -77.458108, 38.663954 ], [ -77.458958, 38.667083 ], [ -77.458346, 38.670282 ], [ -77.456973, 38.67177 ], [ -77.454949, 38.673989 ], [ -77.454395, 38.676868 ], [ -77.456843, 38.676728 ], [ -77.457848, 38.679058 ], [ -77.459556, 38.679643 ], [ -77.462858, 38.68194 ], [ -77.462793, 38.684117 ], [ -77.466316, 38.684279 ], [ -77.466879, 38.685168 ], [ -77.469927, 38.683558 ], [ -77.471666, 38.681456 ], [ -77.473839, 38.680899 ], [ -77.478761, 38.683107 ], [ -77.488517, 38.688356 ], [ -77.490079, 38.688125 ], [ -77.491154, 38.687157 ], [ -77.491281, 38.687255 ], [ -77.493658, 38.688246 ], [ -77.494377, 38.692029 ], [ -77.497509, 38.691811 ], [ -77.499706, 38.692714 ], [ -77.501373, 38.695106 ], [ -77.501524, 38.696806 ], [ -77.503711, 38.700021 ], [ -77.50379, 38.701904 ], [ -77.507657, 38.703446 ], [ -77.506239, 38.706106 ] ] ] } },
{ "type": "Feature", "properties": { "ZIP": "20136" }, "geometry": { "type": "Polygon", "coordinates": [ [ [ -77.604217, 38.760789 ], [ -77.603108, 38.764025 ], [ -77.603796, 38.764459 ], [ -77.601928, 38.767399 ], [ -77.599077, 38.768447 ], [ -77.595785, 38.769021 ], [ -77.59294, 38.770193 ], [ -77.593585, 38.771186 ], [ -77.595505, 38.774679 ], [ -77.59177, 38.778025 ], [ -77.583411, 38.783609 ], [ -77.582172, 38.784134 ], [ -77.583648, 38.784649 ], [ -77.582374, 38.786442 ], [ -77.579695, 38.784919 ], [ -77.576098, 38.782827 ], [ -77.575059, 38.782508 ], [ -77.570246, 38.786747 ], [ -77.570034, 38.786627 ], [ -77.568341, 38.785355 ], [ -77.569928, 38.782832 ], [ -77.566322, 38.783232 ], [ -77.565848, 38.778302 ], [ -77.565913, 38.777886 ], [ -77.560599, 38.776838 ], [ -77.559221, 38.77478 ], [ -77.555344, 38.773083 ], [ -77.560215, 38.767383 ], [ -77.552748, 38.766835 ], [ -77.553664, 38.765359 ], [ -77.554021, 38.764425 ], [ -77.554039, 38.762709 ], [ -77.550492, 38.760157 ], [ -77.548256, 38.762011 ], [ -77.548033, 38.761845 ], [ -77.546977, 38.760971 ], [ -77.546774, 38.760226 ], [ -77.547262, 38.757964 ], [ -77.547188, 38.753527 ], [ -77.548971, 38.752368 ], [ -77.549799, 38.750424 ], [ -77.551667, 38.749724 ], [ -77.554183, 38.750022 ], [ -77.552914, 38.748657 ], [ -77.550662, 38.748316 ], [ -77.550131, 38.748311 ], [ -77.547798, 38.748181 ], [ -77.545447, 38.744585 ], [ -77.542036, 38.745896 ], [ -77.540681, 38.744074 ], [ -77.539357, 38.741554 ], [ -77.53767, 38.740454 ], [ -77.536113, 38.737297 ], [ -77.534545, 38.737151 ], [ -77.533832, 38.737364 ], [ -77.532941, 38.737572 ], [ -77.531142, 38.732549 ], [ -77.530913, 38.728775 ], [ -77.531347, 38.726464 ], [ -77.526087, 38.729617 ], [ -77.524463, 38.727337 ], [ -77.524816, 38.724348 ], [ -77.52437, 38.724005 ], [ -77.524369, 38.723929 ], [ -77.521516, 38.722994 ], [ -77.521226, 38.722019 ], [ -77.522771, 38.719081 ], [ -77.523891, 38.718138 ], [ -77.523858, 38.717623 ], [ -77.521102, 38.717592 ], [ -77.519216, 38.716048 ], [ -77.517223, 38.715365 ], [ -77.515412, 38.715365 ], [ -77.513349, 38.716163 ], [ -77.506239, 38.706106 ], [ -77.507657, 38.703446 ], [ -77.50379, 38.701904 ], [ -77.503711, 38.700021 ], [ -77.501524, 38.696806 ], [ -77.501373, 38.695106 ], [ -77.499706, 38.692714 ], [ -77.497509, 38.691811 ], [ -77.494377, 38.692029 ], [ -77.493658, 38.688246 ], [ -77.491281, 38.687255 ], [ -77.492986, 38.685679 ], [ -77.493164, 38.68517 ], [ -77.492246, 38.684157 ], [ -77.489318, 38.682577 ], [ -77.488326, 38.680627 ], [ -77.488377, 38.67906 ], [ -77.48798, 38.677525 ], [ -77.487534, 38.676975 ], [ -77.493603, 38.675604 ], [ -77.494411, 38.675867 ], [ -77.496193, 38.678575 ], [ -77.496987, 38.681442 ], [ -77.500632, 38.682194 ], [ -77.499287, 38.684743 ], [ -77.501517, 38.685508 ], [ -77.500631, 38.687093 ], [ -77.503132, 38.687952 ], [ -77.502728, 38.68896 ], [ -77.504301, 38.689556 ], [ -77.503877, 38.690366 ], [ -77.509171, 38.691916 ], [ -77.511079, 38.693562 ], [ -77.513714, 38.692346 ], [ -77.516327, 38.68847 ], [ -77.519149, 38.690054 ], [ -77.51752, 38.691738 ], [ -77.522392, 38.695519 ], [ -77.520331, 38.6985 ], [ -77.525704, 38.700405 ], [ -77.527652, 38.702395 ], [ -77.529833, 38.703024 ], [ -77.53321, 38.703028 ], [ -77.534896, 38.702683 ], [ -77.536906, 38.703024 ], [ -77.538498, 38.705038 ], [ -77.541943, 38.705331 ], [ -77.544951, 38.706743 ], [ -77.546014, 38.704902 ], [ -77.550207, 38.703168 ], [ -77.556633, 38.708048 ], [ -77.557844, 38.710973 ], [ -77.558407, 38.712178 ], [ -77.561532, 38.712173 ], [ -77.564648, 38.712267 ], [ -77.561121, 38.716147 ], [ -77.557454, 38.720168 ], [ -77.553086, 38.724962 ], [ -77.565102, 38.732223 ], [ -77.567349, 38.732699 ], [ -77.560336, 38.733379 ], [ -77.552675, 38.732176 ], [ -77.552637, 38.732714 ], [ -77.549815, 38.735211 ], [ -77.552554, 38.73712 ], [ -77.553594, 38.739079 ], [ -77.557512, 38.738302 ], [ -77.55944, 38.733578 ], [ -77.565014, 38.733943 ], [ -77.568029, 38.733244 ], [ -77.568019, 38.732735 ], [ -77.573336, 38.733034 ], [ -77.575788, 38.732676 ], [ -77.576689, 38.7326 ], [ -77.580241, 38.732868 ], [ -77.582136, 38.733006 ], [ -77.589109, 38.73427 ], [ -77.589968, 38.734618 ], [ -77.591503, 38.735332 ], [ -77.596861, 38.736601 ], [ -77.59434, 38.743271 ], [ -77.593517, 38.744345 ], [ -77.593039, 38.747247 ], [ -77.590106, 38.752895 ], [ -77.58836, 38.753704 ], [ -77.587664, 38.753275 ], [ -77.583696, 38.752144 ], [ -77.583007, 38.751516 ], [ -77.581205, 38.750952 ], [ -77.581103, 38.751059 ], [ -77.581827, 38.751482 ], [ -77.582016, 38.751478 ], [ -77.582683, 38.751501 ], [ -77.582891, 38.751618 ], [ -77.583174, 38.751875 ], [ -77.583302, 38.752114 ], [ -77.584062, 38.752372 ], [ -77.586414, 38.752933 ], [ -77.587909, 38.753451 ], [ -77.58831, 38.75387 ], [ -77.588982, 38.755003 ], [ -77.589774, 38.754975 ], [ -77.589782, 38.754414 ], [ -77.590643, 38.754192 ], [ -77.593153, 38.75434 ], [ -77.595056, 38.754896 ], [ -77.59825, 38.753309 ], [ -77.598699, 38.756809 ], [ -77.598309, 38.757466 ], [ -77.596327, 38.75813 ], [ -77.598608, 38.758936 ], [ -77.59871, 38.758846 ], [ -77.598834, 38.758783 ], [ -77.59907, 38.758712 ], [ -77.5994, 38.758721 ], [ -77.599605, 38.758777 ], [ -77.59972, 38.758851 ], [ -77.599793, 38.759113 ], [ -77.600636, 38.759523 ], [ -77.60079, 38.759723 ], [ -77.603158, 38.760615 ], [ -77.604217, 38.760789 ] ] ] } },
{ "type": "Feature", "properties": { "ZIP": "20143" }, "geometry": { "type": "MultiPolygon", "coordinates": [ [ [ [ -77.584875, 38.838029 ], [ -77.583217, 38.836992 ], [ -77.583183, 38.839549 ], [ -77.584258, 38.841255 ], [ -77.583162, 38.845243 ], [ -77.583071, 38.853325 ], [ -77.58, 38.853272 ], [ -77.577763, 38.854535 ], [ -77.573563, 38.851437 ], [ -77.572808, 38.849784 ], [ -77.572725, 38.849665 ], [ -77.572821, 38.849528 ], [ -77.575043, 38.842089 ], [ -77.574977, 38.840269 ], [ -77.571104, 38.83639 ], [ -77.571047, 38.833983 ], [ -77.578269, 38.833739 ], [ -77.585537, 38.835545 ], [ -77.584875, 38.838029 ] ] ], [ [ [ -77.59068, 38.886174 ], [ -77.590876, 38.887709 ], [ -77.590264, 38.888162 ], [ -77.585438, 38.886648 ], [ -77.582046, 38.886894 ], [ -77.580606, 38.891002 ], [ -77.578854, 38.891528 ], [ -77.576483, 38.890544 ], [ -77.57489, 38.890249 ], [ -77.57423, 38.891255 ], [ -77.573213, 38.891038 ], [ -77.572896, 38.890948 ], [ -77.572698, 38.890842 ], [ -77.572332, 38.890401 ], [ -77.571901, 38.890167 ], [ -77.571011, 38.889944 ], [ -77.570456, 38.889765 ], [ -77.57029, 38.889756 ], [ -77.57025, 38.889582 ], [ -77.569061, 38.888955 ], [ -77.568307, 38.887604 ], [ -77.563889, 38.886181 ], [ -77.562003, 38.887182 ], [ -77.560545, 38.886781 ], [ -77.560145, 38.88698 ], [ -77.559199, 38.887718 ], [ -77.558567, 38.887816 ], [ -77.557836, 38.888068 ], [ -77.557583, 38.888361 ], [ -77.555733, 38.888529 ], [ -77.552968, 38.886854 ], [ -77.55224, 38.886588 ], [ -77.552127, 38.88647 ], [ -77.552248, 38.885324 ], [ -77.552161, 38.885004 ], [ -77.551805, 38.88475 ], [ -77.551745, 38.884291 ], [ -77.551891, 38.883711 ], [ -77.551861, 38.883026 ], [ -77.549946, 38.8798 ], [ -77.55009, 38.877352 ], [ -77.551999, 38.875211 ], [ -77.550683, 38.87287 ], [ -77.551535, 38.871682 ], [ -77.549216, 38.867872 ], [ -77.552787, 38.864789 ], [ -77.552592, 38.864056 ], [ -77.550759, 38.864325 ], [ -77.548221, 38.862971 ], [ -77.549638, 38.860483 ], [ -77.551336, 38.859197 ], [ -77.552496, 38.856318 ], [ -77.548074, 38.854269 ], [ -77.5474, 38.852783 ], [ -77.550442, 38.848814 ], [ -77.548752, 38.846609 ], [ -77.545899, 38.846592 ], [ -77.545547, 38.847777 ], [ -77.547656, 38.848398 ], [ -77.546066, 38.849227 ], [ -77.545071, 38.847688 ], [ -77.545155, 38.845048 ], [ -77.546194, 38.845215 ], [ -77.548019, 38.845034 ], [ -77.54504, 38.843566 ], [ -77.54587, 38.84045 ], [ -77.544892, 38.839796 ], [ -77.550644, 38.838621 ], [ -77.552676, 38.835421 ], [ -77.562369, 38.837194 ], [ -77.562339, 38.835196 ], [ -77.563682, 38.834079 ], [ -77.56716, 38.833541 ], [ -77.566725, 38.831601 ], [ -77.568588, 38.828353 ], [ -77.568797, 38.82792 ], [ -77.569298, 38.827579 ], [ -77.570544, 38.827282 ], [ -77.57153, 38.826882 ], [ -77.571481, 38.826981 ], [ -77.56891, 38.827934 ], [ -77.568671, 38.829081 ], [ -77.568318, 38.829616 ], [ -77.56742, 38.830432 ], [ -77.566844, 38.831988 ], [ -77.567335, 38.833521 ], [ -77.566508, 38.833978 ], [ -77.564906, 38.833937 ], [ -77.562595, 38.835097 ], [ -77.562738, 38.836148 ], [ -77.562517, 38.837213 ], [ -77.564543, 38.838877 ], [ -77.567773, 38.840036 ], [ -77.567648, 38.84106 ], [ -77.566422, 38.841153 ], [ -77.562916, 38.84011 ], [ -77.56039, 38.841159 ], [ -77.55794, 38.843339 ], [ -77.559943, 38.844162 ], [ -77.565789, 38.845023 ], [ -77.567497, 38.846243 ], [ -77.571594, 38.847471 ], [ -77.572725, 38.849665 ], [ -77.571724, 38.850982 ], [ -77.570838, 38.854147 ], [ -77.572328, 38.854195 ], [ -77.575889, 38.855807 ], [ -77.575584, 38.858079 ], [ -77.576523, 38.859999 ], [ -77.57791, 38.860043 ], [ -77.577559, 38.863257 ], [ -77.578203, 38.864785 ], [ -77.581464, 38.865015 ], [ -77.584535, 38.86465 ], [ -77.588652, 38.866031 ], [ -77.589014, 38.865646 ], [ -77.589349, 38.866575 ], [ -77.589538, 38.869891 ], [ -77.591289, 38.880859 ], [ -77.59068, 38.886174 ] ] ] ] } },
{ "type": "Feature", "properties": { "ZIP": "20155" }, "geometry": { "type": "Polygon", "coordinates": [ [ [ -77.70344, 38.815938 ], [ -77.702264, 38.819755 ], [ -77.700333, 38.82086 ], [ -77.699675, 38.823761 ], [ -77.694763, 38.822385 ], [ -77.688681, 38.821895 ], [ -77.683153, 38.820882 ], [ -77.678537, 38.820665 ], [ -77.679201, 38.816604 ], [ -77.682038, 38.809714 ], [ -77.681669, 38.80909 ], [ -77.67766, 38.808262 ], [ -77.673946, 38.808482 ], [ -77.672942, 38.807137 ], [ -77.669856, 38.799263 ], [ -77.667123, 38.797932 ], [ -77.664456, 38.800235 ], [ -77.662846, 38.799912 ], [ -77.661884, 38.802153 ], [ -77.658836, 38.803224 ], [ -77.650824, 38.805242 ], [ -77.648791, 38.805236 ], [ -77.650833, 38.800808 ], [ -77.644728, 38.799102 ], [ -77.64283, 38.799044 ], [ -77.644746, 38.800271 ], [ -77.641586, 38.804331 ], [ -77.640015, 38.803757 ], [ -77.639564, 38.804701 ], [ -77.639274, 38.806278 ], [ -77.638442, 38.807453 ], [ -77.638051, 38.808112 ], [ -77.633188, 38.80523 ], [ -77.631042, 38.807432 ], [ -77.629067, 38.808703 ], [ -77.626798, 38.811792 ], [ -77.626623, 38.812816 ], [ -77.626226, 38.814753 ], [ -77.625227, 38.817836 ], [ -77.624808, 38.820341 ], [ -77.624432, 38.820591 ], [ -77.62093, 38.818737 ], [ -77.618693, 38.816293 ], [ -77.614758, 38.815421 ], [ -77.614475, 38.816701 ], [ -77.613189, 38.818708 ], [ -77.609517, 38.818199 ], [ -77.608876, 38.82229 ], [ -77.608812, 38.827671 ], [ -77.607564, 38.830855 ], [ -77.606041, 38.831076 ], [ -77.605395, 38.831266 ], [ -77.606373, 38.831887 ], [ -77.604873, 38.851644 ], [ -77.618748, 38.854207 ], [ -77.621259, 38.854964 ], [ -77.621136, 38.856802 ], [ -77.622756, 38.8566 ], [ -77.621847, 38.858922 ], [ -77.621786, 38.861137 ], [ -77.620142, 38.862053 ], [ -77.619597, 38.86464 ], [ -77.618492, 38.865636 ], [ -77.619641, 38.865988 ], [ -77.619627, 38.866015 ], [ -77.61629, 38.865003 ], [ -77.616125, 38.866066 ], [ -77.613865, 38.875178 ], [ -77.606552, 38.876922 ], [ -77.606596, 38.872853 ], [ -77.605512, 38.870746 ], [ -77.603252, 38.87052 ], [ -77.603229, 38.872204 ], [ -77.601383, 38.872232 ], [ -77.601455, 38.87416 ], [ -77.599635, 38.873054 ], [ -77.598112, 38.87303 ], [ -77.598711, 38.87888 ], [ -77.591289, 38.880859 ], [ -77.589538, 38.869891 ], [ -77.589349, 38.866575 ], [ -77.589014, 38.865646 ], [ -77.588652, 38.866031 ], [ -77.584535, 38.86465 ], [ -77.581464, 38.865015 ], [ -77.578203, 38.864785 ], [ -77.577559, 38.863257 ], [ -77.57791, 38.860043 ], [ -77.576523, 38.859999 ], [ -77.575584, 38.858079 ], [ -77.575889, 38.855807 ], [ -77.572328, 38.854195 ], [ -77.570838, 38.854147 ], [ -77.571724, 38.850982 ], [ -77.572725, 38.849665 ], [ -77.571594, 38.847471 ], [ -77.567497, 38.846243 ], [ -77.565789, 38.845023 ], [ -77.559943, 38.844162 ], [ -77.55794, 38.843339 ], [ -77.56039, 38.841159 ], [ -77.562916, 38.84011 ], [ -77.566422, 38.841153 ], [ -77.567648, 38.84106 ], [ -77.567773, 38.840036 ], [ -77.564543, 38.838877 ], [ -77.562517, 38.837213 ], [ -77.562738, 38.836148 ], [ -77.562595, 38.835097 ], [ -77.564906, 38.833937 ], [ -77.566508, 38.833978 ], [ -77.567335, 38.833521 ], [ -77.566844, 38.831988 ], [ -77.56742, 38.830432 ], [ -77.568318, 38.829616 ], [ -77.568671, 38.829081 ], [ -77.56891, 38.827934 ], [ -77.571481, 38.826981 ], [ -77.57153, 38.826882 ], [ -77.570544, 38.827282 ], [ -77.569298, 38.827579 ], [ -77.568797, 38.82792 ], [ -77.568588, 38.828353 ], [ -77.566089, 38.826617 ], [ -77.565698, 38.82511 ], [ -77.563973, 38.824368 ], [ -77.561741, 38.821884 ], [ -77.563646, 38.820805 ], [ -77.572358, 38.820755 ], [ -77.573282, 38.806178 ], [ -77.593955, 38.801066 ], [ -77.597867, 38.799847 ], [ -77.598733, 38.799632 ], [ -77.585483, 38.797815 ], [ -77.585584, 38.797316 ], [ -77.578593, 38.795589 ], [ -77.56791, 38.791644 ], [ -77.565146, 38.791363 ], [ -77.565476, 38.790452 ], [ -77.568341, 38.785355 ], [ -77.570034, 38.786627 ], [ -77.570246, 38.786747 ], [ -77.575059, 38.782508 ], [ -77.576098, 38.782827 ], [ -77.579695, 38.784919 ], [ -77.582374, 38.786442 ], [ -77.583648, 38.784649 ], [ -77.582172, 38.784134 ], [ -77.583411, 38.783609 ], [ -77.59177, 38.778025 ], [ -77.595505, 38.774679 ], [ -77.593585, 38.771186 ], [ -77.59294, 38.770193 ], [ -77.595785, 38.769021 ], [ -77.599077, 38.768447 ], [ -77.601928, 38.767399 ], [ -77.603796, 38.764459 ], [ -77.603108, 38.764025 ], [ -77.604217, 38.760789 ], [ -77.603158, 38.760615 ], [ -77.60079, 38.759723 ], [ -77.600636, 38.759523 ], [ -77.605009, 38.760963 ], [ -77.607185, 38.761008 ], [ -77.608158, 38.760558 ], [ -77.608374, 38.75918 ], [ -77.609262, 38.75698 ], [ -77.608566, 38.75521 ], [ -77.60889, 38.754467 ], [ -77.609689, 38.754274 ], [ -77.611434, 38.754597 ], [ -77.612095, 38.75484 ], [ -77.614245, 38.755149 ], [ -77.61501, 38.755714 ], [ -77.615176, 38.757594 ], [ -77.617328, 38.757733 ], [ -77.617492, 38.757806 ], [ -77.617676, 38.758055 ], [ -77.61794, 38.758746 ], [ -77.618151, 38.759143 ], [ -77.618303, 38.759265 ], [ -77.61868, 38.759411 ], [ -77.618912, 38.759631 ], [ -77.619038, 38.760007 ], [ -77.618919, 38.760185 ], [ -77.618532, 38.760348 ], [ -77.618473, 38.760475 ], [ -77.621907, 38.763274 ], [ -77.623468, 38.76507 ], [ -77.625042, 38.764584 ], [ -77.625001, 38.767667 ], [ -77.628108, 38.769178 ], [ -77.631105, 38.76826 ], [ -77.63304, 38.768419 ], [ -77.63415, 38.770157 ], [ -77.636194, 38.771374 ], [ -77.636777, 38.771575 ], [ -77.637808, 38.772338 ], [ -77.637948, 38.772527 ], [ -77.638863, 38.772786 ], [ -77.641145, 38.772075 ], [ -77.641954, 38.771387 ], [ -77.645177, 38.771078 ], [ -77.651266, 38.769545 ], [ -77.652889, 38.769986 ], [ -77.656227, 38.76824 ], [ -77.657176, 38.768307 ], [ -77.659109, 38.769183 ], [ -77.66083, 38.768273 ], [ -77.659912, 38.766421 ], [ -77.657967, 38.766553 ], [ -77.657689, 38.764923 ], [ -77.656575, 38.767227 ], [ -77.653834, 38.767652 ], [ -77.651753, 38.766974 ], [ -77.653377, 38.763659 ], [ -77.654848, 38.762845 ], [ -77.655902, 38.760443 ], [ -77.656487, 38.756552 ], [ -77.658355, 38.754154 ], [ -77.658269, 38.751828 ], [ -77.652993, 38.750538 ], [ -77.656402, 38.746261 ], [ -77.657967, 38.745756 ], [ -77.659016, 38.747327 ], [ -77.662635, 38.752768 ], [ -77.669725, 38.763418 ], [ -77.679735, 38.77844 ], [ -77.679854, 38.77862 ], [ -77.691864, 38.796633 ], [ -77.697167, 38.804584 ], [ -77.696083, 38.805531 ], [ -77.695513, 38.808284 ], [ -77.698674, 38.812429 ], [ -77.703261, 38.814558 ], [ -77.70344, 38.815938 ] ], [ [ -77.572725, 38.849665 ], [ -77.572808, 38.849784 ], [ -77.573563, 38.851437 ], [ -77.577763, 38.854535 ], [ -77.58, 38.853272 ], [ -77.583071, 38.853325 ], [ -77.583162, 38.845243 ], [ -77.584258, 38.841255 ], [ -77.583183, 38.839549 ], [ -77.583217, 38.836992 ], [ -77.584875, 38.838029 ], [ -77.585537, 38.835545 ], [ -77.578269, 38.833739 ], [ -77.571047, 38.833983 ], [ -77.571104, 38.83639 ], [ -77.574977, 38.840269 ], [ -77.575043, 38.842089 ], [ -77.572821, 38.849528 ], [ -77.572725, 38.849665 ] ] ] } },
{ "type": "Feature", "properties": { "ZIP": "20169" }, "geometry": { "type": "Polygon", "coordinates": [ [ [ -77.709688, 38.843184 ], [ -77.704931, 38.843152 ], [ -77.702746, 38.847793 ], [ -77.701554, 38.851592 ], [ -77.702183, 38.853628 ], [ -77.701337, 38.855443 ], [ -77.700697, 38.860494 ], [ -77.699654, 38.862349 ], [ -77.699676, 38.863888 ], [ -77.699431, 38.867145 ], [ -77.697989, 38.871425 ], [ -77.697913, 38.875155 ], [ -77.696092, 38.878714 ], [ -77.696113, 38.879772 ], [ -77.692622, 38.887004 ], [ -77.684766, 38.891021 ], [ -77.682144, 38.897407 ], [ -77.675454, 38.909216 ], [ -77.669641, 38.929722 ], [ -77.662708, 38.939285 ], [ -77.659213, 38.940882 ], [ -77.657581, 38.943231 ], [ -77.655169, 38.942656 ], [ -77.653613, 38.942173 ], [ -77.651561, 38.942774 ], [ -77.649745, 38.94268 ], [ -77.647451, 38.94145 ], [ -77.646055, 38.941485 ], [ -77.644185, 38.942579 ], [ -77.641618, 38.942746 ], [ -77.640488, 38.941803 ], [ -77.637502, 38.9417 ], [ -77.634692, 38.938006 ], [ -77.631415, 38.934881 ], [ -77.628735, 38.933627 ], [ -77.626196, 38.933154 ], [ -77.625044, 38.931825 ], [ -77.624409, 38.931296 ], [ -77.620932, 38.930884 ], [ -77.618654, 38.931293 ], [ -77.617628, 38.930565 ], [ -77.617013, 38.927566 ], [ -77.615968, 38.927194 ], [ -77.615101, 38.925501 ], [ -77.612758, 38.924054 ], [ -77.612888, 38.922919 ], [ -77.611706, 38.921211 ], [ -77.611301, 38.91953 ], [ -77.611597, 38.91751 ], [ -77.610373, 38.916146 ], [ -77.609005, 38.91321 ], [ -77.607591, 38.912023 ], [ -77.603189, 38.91106 ], [ -77.602927, 38.910137 ], [ -77.601644, 38.908301 ], [ -77.601101, 38.907861 ], [ -77.600491, 38.906299 ], [ -77.59955, 38.905066 ], [ -77.598703, 38.904376 ], [ -77.598246, 38.902791 ], [ -77.595672, 38.901134 ], [ -77.593858, 38.900811 ], [ -77.591302, 38.899027 ], [ -77.591626, 38.897549 ], [ -77.591243, 38.897391 ], [ -77.5916, 38.897175 ], [ -77.591618, 38.896707 ], [ -77.591443, 38.89661 ], [ -77.588364, 38.896273 ], [ -77.585728, 38.895163 ], [ -77.584659, 38.893544 ], [ -77.582352, 38.892248 ], [ -77.582081, 38.891401 ], [ -77.581291, 38.890998 ], [ -77.580606, 38.891002 ], [ -77.582046, 38.886894 ], [ -77.585438, 38.886648 ], [ -77.590264, 38.888162 ], [ -77.590876, 38.887709 ], [ -77.59068, 38.886174 ], [ -77.591289, 38.880859 ], [ -77.598711, 38.87888 ], [ -77.598112, 38.87303 ], [ -77.599635, 38.873054 ], [ -77.601455, 38.87416 ], [ -77.601383, 38.872232 ], [ -77.603229, 38.872204 ], [ -77.603252, 38.87052 ], [ -77.605512, 38.870746 ], [ -77.606596, 38.872853 ], [ -77.606552, 38.876922 ], [ -77.613865, 38.875178 ], [ -77.616125, 38.866066 ], [ -77.61629, 38.865003 ], [ -77.619627, 38.866015 ], [ -77.619641, 38.865988 ], [ -77.618492, 38.865636 ], [ -77.619597, 38.86464 ], [ -77.620142, 38.862053 ], [ -77.621786, 38.861137 ], [ -77.621847, 38.858922 ], [ -77.622756, 38.8566 ], [ -77.621136, 38.856802 ], [ -77.621259, 38.854964 ], [ -77.618748, 38.854207 ], [ -77.604873, 38.851644 ], [ -77.606373, 38.831887 ], [ -77.605395, 38.831266 ], [ -77.606041, 38.831076 ], [ -77.607564, 38.830855 ], [ -77.608812, 38.827671 ], [ -77.608876, 38.82229 ], [ -77.609517, 38.818199 ], [ -77.613189, 38.818708 ], [ -77.614475, 38.816701 ], [ -77.614758, 38.815421 ], [ -77.618693, 38.816293 ], [ -77.62093, 38.818737 ], [ -77.624432, 38.820591 ], [ -77.624808, 38.820341 ], [ -77.625227, 38.817836 ], [ -77.626226, 38.814753 ], [ -77.626623, 38.812816 ], [ -77.626798, 38.811792 ], [ -77.629067, 38.808703 ], [ -77.631042, 38.807432 ], [ -77.633188, 38.80523 ], [ -77.638051, 38.808112 ], [ -77.638442, 38.807453 ], [ -77.639274, 38.806278 ], [ -77.639564, 38.804701 ], [ -77.640015, 38.803757 ], [ -77.641586, 38.804331 ], [ -77.644746, 38.800271 ], [ -77.64283, 38.799044 ], [ -77.644728, 38.799102 ], [ -77.650833, 38.800808 ], [ -77.648791, 38.805236 ], [ -77.650824, 38.805242 ], [ -77.658836, 38.803224 ], [ -77.661884, 38.802153 ], [ -77.662846, 38.799912 ], [ -77.664456, 38.800235 ], [ -77.667123, 38.797932 ], [ -77.669856, 38.799263 ], [ -77.672942, 38.807137 ], [ -77.673946, 38.808482 ], [ -77.675265, 38.812564 ], [ -77.675427, 38.81393 ], [ -77.675225, 38.815868 ], [ -77.673866, 38.81881 ], [ -77.673699, 38.820617 ], [ -77.675407, 38.821515 ], [ -77.675403, 38.821787 ], [ -77.673425, 38.828381 ], [ -77.6733, 38.833622 ], [ -77.671768, 38.836773 ], [ -77.675553, 38.841018 ], [ -77.678963, 38.839697 ], [ -77.68202, 38.837645 ], [ -77.686874, 38.841567 ], [ -77.690222, 38.841762 ], [ -77.69701, 38.84407 ], [ -77.701078, 38.841675 ], [ -77.710145, 38.84003 ], [ -77.709688, 38.843184 ] ] ] } },
{ "type": "Feature", "properties": { "ZIP": "20181" }, "geometry": { "type": "Polygon", "coordinates": [ [ [ -77.694764, 38.72437 ], [ -77.69564, 38.724779 ], [ -77.69143, 38.728664 ], [ -77.685456, 38.734156 ], [ -77.681707, 38.737582 ], [ -77.679391, 38.739043 ], [ -77.676158, 38.739785 ], [ -77.67347, 38.739839 ], [ -77.672893, 38.739953 ], [ -77.659511, 38.745326 ], [ -77.657967, 38.745756 ], [ -77.656402, 38.746261 ], [ -77.652993, 38.750538 ], [ -77.658269, 38.751828 ], [ -77.658355, 38.754154 ], [ -77.656487, 38.756552 ], [ -77.655902, 38.760443 ], [ -77.654848, 38.762845 ], [ -77.653377, 38.763659 ], [ -77.651753, 38.766974 ], [ -77.653834, 38.767652 ], [ -77.656575, 38.767227 ], [ -77.657689, 38.764923 ], [ -77.657967, 38.766553 ], [ -77.659912, 38.766421 ], [ -77.66083, 38.768273 ], [ -77.659109, 38.769183 ], [ -77.657176, 38.768307 ], [ -77.656227, 38.76824 ], [ -77.652889, 38.769986 ], [ -77.651266, 38.769545 ], [ -77.645177, 38.771078 ], [ -77.641954, 38.771387 ], [ -77.641145, 38.772075 ], [ -77.638863, 38.772786 ], [ -77.637948, 38.772527 ], [ -77.637808, 38.772338 ], [ -77.636777, 38.771575 ], [ -77.636194, 38.771374 ], [ -77.63415, 38.770157 ], [ -77.63304, 38.768419 ], [ -77.631105, 38.76826 ], [ -77.628108, 38.769178 ], [ -77.625001, 38.767667 ], [ -77.625042, 38.764584 ], [ -77.623468, 38.76507 ], [ -77.621907, 38.763274 ], [ -77.618473, 38.760475 ], [ -77.618532, 38.760348 ], [ -77.618919, 38.760185 ], [ -77.619038, 38.760007 ], [ -77.618912, 38.759631 ], [ -77.61868, 38.759411 ], [ -77.618303, 38.759265 ], [ -77.618151, 38.759143 ], [ -77.61794, 38.758746 ], [ -77.617676, 38.758055 ], [ -77.617492, 38.757806 ], [ -77.617328, 38.757733 ], [ -77.615176, 38.757594 ], [ -77.61501, 38.755714 ], [ -77.614245, 38.755149 ], [ -77.612095, 38.75484 ], [ -77.611434, 38.754597 ], [ -77.609689, 38.754274 ], [ -77.60889, 38.754467 ], [ -77.608566, 38.75521 ], [ -77.609262, 38.75698 ], [ -77.608374, 38.75918 ], [ -77.608158, 38.760558 ], [ -77.607185, 38.761008 ], [ -77.605009, 38.760963 ], [ -77.600636, 38.759523 ], [ -77.599793, 38.759113 ], [ -77.59972, 38.758851 ], [ -77.599605, 38.758777 ], [ -77.5994, 38.758721 ], [ -77.59907, 38.758712 ], [ -77.598834, 38.758783 ], [ -77.59871, 38.758846 ], [ -77.598608, 38.758936 ], [ -77.596327, 38.75813 ], [ -77.598309, 38.757466 ], [ -77.598699, 38.756809 ], [ -77.59825, 38.753309 ], [ -77.595056, 38.754896 ], [ -77.593153, 38.75434 ], [ -77.590643, 38.754192 ], [ -77.589782, 38.754414 ], [ -77.589774, 38.754975 ], [ -77.588982, 38.755003 ], [ -77.58831, 38.75387 ], [ -77.587909, 38.753451 ], [ -77.586414, 38.752933 ], [ -77.584062, 38.752372 ], [ -77.583302, 38.752114 ], [ -77.583174, 38.751875 ], [ -77.582891, 38.751618 ], [ -77.582683, 38.751501 ], [ -77.582016, 38.751478 ], [ -77.581827, 38.751482 ], [ -77.581103, 38.751059 ], [ -77.581205, 38.750952 ], [ -77.583007, 38.751516 ], [ -77.583696, 38.752144 ], [ -77.587664, 38.753275 ], [ -77.58836, 38.753704 ], [ -77.590106, 38.752895 ], [ -77.593039, 38.747247 ], [ -77.593517, 38.744345 ], [ -77.59434, 38.743271 ], [ -77.596861, 38.736601 ], [ -77.591503, 38.735332 ], [ -77.589968, 38.734618 ], [ -77.589109, 38.73427 ], [ -77.582136, 38.733006 ], [ -77.580241, 38.732868 ], [ -77.576689, 38.7326 ], [ -77.575788, 38.732676 ], [ -77.573336, 38.733034 ], [ -77.568019, 38.732735 ], [ -77.568029, 38.733244 ], [ -77.565014, 38.733943 ], [ -77.55944, 38.733578 ], [ -77.557512, 38.738302 ], [ -77.553594, 38.739079 ], [ -77.552554, 38.73712 ], [ -77.549815, 38.735211 ], [ -77.552637, 38.732714 ], [ -77.552675, 38.732176 ], [ -77.560336, 38.733379 ], [ -77.567349, 38.732699 ], [ -77.565102, 38.732223 ], [ -77.553086, 38.724962 ], [ -77.557454, 38.720168 ], [ -77.561121, 38.716147 ], [ -77.564648, 38.712267 ], [ -77.561532, 38.712173 ], [ -77.558407, 38.712178 ], [ -77.557844, 38.710973 ], [ -77.556633, 38.708048 ], [ -77.550207, 38.703168 ], [ -77.546014, 38.704902 ], [ -77.544951, 38.706743 ], [ -77.541943, 38.705331 ], [ -77.538498, 38.705038 ], [ -77.536906, 38.703024 ], [ -77.534896, 38.702683 ], [ -77.53321, 38.703028 ], [ -77.529833, 38.703024 ], [ -77.527652, 38.702395 ], [ -77.525704, 38.700405 ], [ -77.520331, 38.6985 ], [ -77.522392, 38.695519 ], [ -77.51752, 38.691738 ], [ -77.519149, 38.690054 ], [ -77.516327, 38.68847 ], [ -77.513714, 38.692346 ], [ -77.511079, 38.693562 ], [ -77.509171, 38.691916 ], [ -77.503877, 38.690366 ], [ -77.504301, 38.689556 ], [ -77.502728, 38.68896 ], [ -77.503132, 38.687952 ], [ -77.500631, 38.687093 ], [ -77.501517, 38.685508 ], [ -77.499287, 38.684743 ], [ -77.500632, 38.682194 ], [ -77.496987, 38.681442 ], [ -77.496193, 38.678575 ], [ -77.494411, 38.675867 ], [ -77.493603, 38.675604 ], [ -77.487534, 38.676975 ], [ -77.48798, 38.677525 ], [ -77.488377, 38.67906 ], [ -77.488326, 38.680627 ], [ -77.489318, 38.682577 ], [ -77.492246, 38.684157 ], [ -77.493164, 38.68517 ], [ -77.492986, 38.685679 ], [ -77.491281, 38.687255 ], [ -77.491154, 38.687157 ], [ -77.490079, 38.688125 ], [ -77.488517, 38.688356 ], [ -77.478761, 38.683107 ], [ -77.473839, 38.680899 ], [ -77.471666, 38.681456 ], [ -77.469927, 38.683558 ], [ -77.466879, 38.685168 ], [ -77.466316, 38.684279 ], [ -77.462793, 38.684117 ], [ -77.462858, 38.68194 ], [ -77.459556, 38.679643 ], [ -77.457848, 38.679058 ], [ -77.456843, 38.676728 ], [ -77.454395, 38.676868 ], [ -77.454949, 38.673989 ], [ -77.456973, 38.67177 ], [ -77.458346, 38.670282 ], [ -77.458958, 38.667083 ], [ -77.458108, 38.663954 ], [ -77.458297, 38.659649 ], [ -77.45656, 38.659257 ], [ -77.45763, 38.657549 ], [ -77.456487, 38.656084 ], [ -77.456394, 38.654337 ], [ -77.456787, 38.652966 ], [ -77.464323, 38.653363 ], [ -77.466117, 38.653038 ], [ -77.463799, 38.649364 ], [ -77.461105, 38.646787 ], [ -77.459669, 38.646 ], [ -77.45259, 38.644293 ], [ -77.452486, 38.641949 ], [ -77.458043, 38.638356 ], [ -77.455709, 38.635649 ], [ -77.454367, 38.631775 ], [ -77.452542, 38.631618 ], [ -77.447152, 38.632479 ], [ -77.442812, 38.630957 ], [ -77.440123, 38.631823 ], [ -77.440217, 38.625622 ], [ -77.438789, 38.625606 ], [ -77.437702, 38.625427 ], [ -77.437439, 38.624752 ], [ -77.439216, 38.624686 ], [ -77.446528, 38.626524 ], [ -77.447889, 38.624133 ], [ -77.44723, 38.620791 ], [ -77.448367, 38.616555 ], [ -77.447384, 38.614021 ], [ -77.44782, 38.613046 ], [ -77.452559, 38.610061 ], [ -77.452601, 38.6091 ], [ -77.455021, 38.606387 ], [ -77.456108, 38.60448 ], [ -77.466036, 38.603643 ], [ -77.462642, 38.599605 ], [ -77.461281, 38.594117 ], [ -77.458361, 38.59321 ], [ -77.453528, 38.590976 ], [ -77.447403, 38.590527 ], [ -77.446282, 38.590108 ], [ -77.448808, 38.588686 ], [ -77.453658, 38.587571 ], [ -77.45645, 38.585935 ], [ -77.457054, 38.585016 ], [ -77.457014, 38.580275 ], [ -77.459115, 38.579487 ], [ -77.461532, 38.579408 ], [ -77.464079, 38.578676 ], [ -77.465497, 38.58088 ], [ -77.466707, 38.581346 ], [ -77.467009, 38.58279 ], [ -77.468428, 38.583781 ], [ -77.468744, 38.585247 ], [ -77.470241, 38.585735 ], [ -77.471082, 38.587022 ], [ -77.471612, 38.589462 ], [ -77.473734, 38.590086 ], [ -77.476847, 38.592286 ], [ -77.479969, 38.591865 ], [ -77.480954, 38.592571 ], [ -77.483599, 38.591059 ], [ -77.485089, 38.592277 ], [ -77.487481, 38.591845 ], [ -77.491821, 38.590645 ], [ -77.496855, 38.58648 ], [ -77.497018, 38.583791 ], [ -77.499572, 38.580311 ], [ -77.529889, 38.557627 ], [ -77.531328, 38.55655 ], [ -77.532822, 38.557224 ], [ -77.561824, 38.601018 ], [ -77.560263, 38.602501 ], [ -77.559468, 38.603171 ], [ -77.559348, 38.603298 ], [ -77.559147, 38.603529 ], [ -77.558935, 38.603807 ], [ -77.557814, 38.605515 ], [ -77.554961, 38.607941 ], [ -77.556974, 38.609347 ], [ -77.564544, 38.612634 ], [ -77.563546, 38.613884 ], [ -77.561941, 38.614238 ], [ -77.562485, 38.618296 ], [ -77.568829, 38.618535 ], [ -77.571137, 38.619836 ], [ -77.571461, 38.620285 ], [ -77.571, 38.620712 ], [ -77.570713, 38.621097 ], [ -77.570763, 38.621327 ], [ -77.572032, 38.621947 ], [ -77.572937, 38.624553 ], [ -77.572368, 38.625466 ], [ -77.573048, 38.62703 ], [ -77.579428, 38.627566 ], [ -77.579484, 38.627653 ], [ -77.607091, 38.669253 ], [ -77.606558, 38.670462 ], [ -77.606749, 38.670445 ], [ -77.607884, 38.670442 ], [ -77.61326, 38.678534 ], [ -77.619641, 38.688149 ], [ -77.624978, 38.696168 ], [ -77.632814, 38.707952 ], [ -77.638501, 38.7087 ], [ -77.640877, 38.711744 ], [ -77.642269, 38.711855 ], [ -77.648796, 38.709977 ], [ -77.652044, 38.710058 ], [ -77.654982, 38.709145 ], [ -77.662093, 38.709977 ], [ -77.666188, 38.709818 ], [ -77.667293, 38.710897 ], [ -77.670654, 38.711483 ], [ -77.673202, 38.709912 ], [ -77.679635, 38.711869 ], [ -77.679237, 38.714531 ], [ -77.682894, 38.715945 ], [ -77.683278, 38.713875 ], [ -77.691326, 38.716287 ], [ -77.690806, 38.717333 ], [ -77.696826, 38.722546 ], [ -77.694764, 38.72437 ] ] ] } },
{ "type": "Feature", "properties": { "ZIP": "22025" }, "geometry": { "type": "Polygon", "coordinates": [ [ [ -77.408142, 38.618499 ], [ -77.403923, 38.61965 ], [ -77.400593, 38.618526 ], [ -77.398743, 38.620489 ], [ -77.396355, 38.619038 ], [ -77.38972, 38.613586 ], [ -77.388834, 38.6128 ], [ -77.386798, 38.61208 ], [ -77.384702, 38.612039 ], [ -77.384673, 38.610948 ], [ -77.383395, 38.611297 ], [ -77.38149, 38.611351 ], [ -77.38137, 38.612554 ], [ -77.37118, 38.611571 ], [ -77.371146, 38.611755 ], [ -77.371039, 38.611745 ], [ -77.370553, 38.614419 ], [ -77.367878, 38.612103 ], [ -77.367896, 38.611337 ], [ -77.366997, 38.61104 ], [ -77.363443, 38.609465 ], [ -77.362005, 38.612931 ], [ -77.363403, 38.617756 ], [ -77.361962, 38.618046 ], [ -77.361084, 38.617965 ], [ -77.359007, 38.618727 ], [ -77.360569, 38.624866 ], [ -77.361093, 38.627085 ], [ -77.357386, 38.626369 ], [ -77.356519, 38.628969 ], [ -77.348035, 38.628873 ], [ -77.346207, 38.626287 ], [ -77.344475, 38.62428 ], [ -77.343206, 38.623539 ], [ -77.340567, 38.619298 ], [ -77.333997, 38.620938 ], [ -77.335236, 38.617147 ], [ -77.3351, 38.615284 ], [ -77.335166, 38.613855 ], [ -77.328956, 38.611688 ], [ -77.327258, 38.616195 ], [ -77.326393, 38.61596 ], [ -77.326762, 38.614907 ], [ -77.323231, 38.612343 ], [ -77.321522, 38.609475 ], [ -77.318968, 38.609445 ], [ -77.321422, 38.60719 ], [ -77.322524, 38.604869 ], [ -77.323041, 38.604434 ], [ -77.323253, 38.603068 ], [ -77.317113, 38.60325 ], [ -77.3118, 38.60826 ], [ -77.309919, 38.606803 ], [ -77.307986, 38.60654 ], [ -77.311084, 38.603536 ], [ -77.31194, 38.602408 ], [ -77.313073, 38.60051 ], [ -77.315966, 38.593563 ], [ -77.3198, 38.584413 ], [ -77.320515, 38.583089 ], [ -77.32275, 38.580022 ], [ -77.334872, 38.568178 ], [ -77.335106, 38.568343 ], [ -77.336909, 38.566648 ], [ -77.337979, 38.56493 ], [ -77.339008, 38.566086 ], [ -77.340117, 38.564537 ], [ -77.341277, 38.564987 ], [ -77.342876, 38.566251 ], [ -77.342508, 38.568087 ], [ -77.345282, 38.568957 ], [ -77.343335, 38.570162 ], [ -77.34686, 38.571889 ], [ -77.347911, 38.573349 ], [ -77.350865, 38.574146 ], [ -77.352437, 38.575396 ], [ -77.354605, 38.575605 ], [ -77.356919, 38.57688 ], [ -77.361538, 38.577421 ], [ -77.364229, 38.579391 ], [ -77.363924, 38.580738 ], [ -77.365624, 38.584315 ], [ -77.367248, 38.586776 ], [ -77.369694, 38.589073 ], [ -77.370625, 38.592578 ], [ -77.373923, 38.596868 ], [ -77.370916, 38.60045 ], [ -77.370606, 38.601994 ], [ -77.368836, 38.602461 ], [ -77.369324, 38.603501 ], [ -77.371329, 38.603795 ], [ -77.37261, 38.602956 ], [ -77.376694, 38.603703 ], [ -77.37817, 38.604722 ], [ -77.384058, 38.604113 ], [ -77.387218, 38.602961 ], [ -77.388363, 38.604987 ], [ -77.389527, 38.604397 ], [ -77.394295, 38.605069 ], [ -77.395521, 38.607004 ], [ -77.398034, 38.60698 ], [ -77.399125, 38.607798 ], [ -77.398798, 38.611007 ], [ -77.40122, 38.61121 ], [ -77.40347, 38.613405 ], [ -77.403209, 38.614608 ], [ -77.405764, 38.617312 ], [ -77.408142, 38.618499 ] ] ] } },
{ "type": "Feature", "properties": { "ZIP": "22026" }, "geometry": { "type": "Polygon", "coordinates": [ [ [ -77.340065, 38.557891 ], [ -77.337375, 38.564732 ], [ -77.334872, 38.568178 ], [ -77.32275, 38.580022 ], [ -77.320515, 38.583089 ], [ -77.3198, 38.584413 ], [ -77.315966, 38.593563 ], [ -77.313073, 38.60051 ], [ -77.31194, 38.602408 ], [ -77.30818, 38.600988 ], [ -77.306529, 38.598619 ], [ -77.308064, 38.594146 ], [ -77.30667, 38.595201 ], [ -77.305912, 38.595342 ], [ -77.304447, 38.594394 ], [ -77.301533, 38.59295 ], [ -77.301928, 38.592507 ], [ -77.305909, 38.587931 ], [ -77.305835, 38.587825 ], [ -77.300429, 38.582013 ], [ -77.300616, 38.581464 ], [ -77.302148, 38.580125 ], [ -77.301453, 38.579666 ], [ -77.299308, 38.577219 ], [ -77.298621, 38.576524 ], [ -77.297835, 38.576001 ], [ -77.296166, 38.575296 ], [ -77.295829, 38.57566 ], [ -77.294017, 38.5764 ], [ -77.294694, 38.578259 ], [ -77.291767, 38.582125 ], [ -77.289019, 38.584617 ], [ -77.284174, 38.58591 ], [ -77.280596, 38.586699 ], [ -77.27986, 38.586647 ], [ -77.277226, 38.586786 ], [ -77.277596, 38.587205 ], [ -77.272176, 38.585939 ], [ -77.272312, 38.584705 ], [ -77.271405, 38.583504 ], [ -77.267224, 38.582603 ], [ -77.265103, 38.584093 ], [ -77.264182019642305, 38.5838043495798 ], [ -77.26443, 38.582845 ], [ -77.265304, 38.580319 ], [ -77.26083, 38.56533 ], [ -77.25703, 38.561197 ], [ -77.257042726885402, 38.560517929758497 ], [ -77.257044, 38.56045 ], [ -77.26032, 38.559843 ], [ -77.261594, 38.558848 ], [ -77.261634, 38.556692 ], [ -77.263826, 38.555436 ], [ -77.272584, 38.551438 ], [ -77.276603, 38.54712 ], [ -77.276595457786996, 38.546931444673604 ], [ -77.276303, 38.53962 ], [ -77.27858, 38.536875 ], [ -77.279123, 38.53398 ], [ -77.283111, 38.533014 ], [ -77.285487, 38.53069 ], [ -77.285525122329901, 38.530581926601997 ], [ -77.286034294670998, 38.529138468524799 ], [ -77.2876, 38.529334 ], [ -77.287892, 38.53058 ], [ -77.285303, 38.53592 ], [ -77.289259, 38.539325 ], [ -77.294944, 38.544218 ], [ -77.297477, 38.546398 ], [ -77.301104, 38.54952 ], [ -77.300519, 38.550032 ], [ -77.302952, 38.553327 ], [ -77.301846, 38.554932 ], [ -77.301638, 38.555233 ], [ -77.303029, 38.555469 ], [ -77.304841, 38.559642 ], [ -77.306251, 38.560804 ], [ -77.3077, 38.560484 ], [ -77.310998, 38.559507 ], [ -77.314058, 38.559161 ], [ -77.316092, 38.559769 ], [ -77.317987, 38.561906 ], [ -77.31887, 38.563166 ], [ -77.319337, 38.562895 ], [ -77.321163, 38.561146 ], [ -77.322217, 38.560191 ], [ -77.324093, 38.561561 ], [ -77.326476, 38.558629 ], [ -77.330404, 38.560776 ], [ -77.331422, 38.559605 ], [ -77.331822, 38.558206 ], [ -77.333528, 38.558409 ], [ -77.334263, 38.556916 ], [ -77.335674, 38.555682 ], [ -77.33913, 38.558108 ], [ -77.340065, 38.557891 ] ] ] } },
{ "type": "Feature", "properties": { "ZIP": "22125" }, "geometry": { "type": "Polygon", "coordinates": [ [ [ -77.265487, 38.682732 ], [ -77.264026, 38.685273 ], [ -77.263422, 38.686389 ], [ -77.261958, 38.685978 ], [ -77.258197, 38.684065 ], [ -77.258024, 38.683954 ], [ -77.255653, 38.682124 ], [ -77.25478, 38.681178 ], [ -77.25618, 38.680153 ], [ -77.25833, 38.681938 ], [ -77.258377, 38.681308 ], [ -77.257938, 38.679338 ], [ -77.259971, 38.677745 ], [ -77.260551, 38.677533 ], [ -77.264872, 38.682063 ], [ -77.265487, 38.682732 ] ] ] } },
{ "type": "Feature", "properties": { "ZIP": "22134" }, "geometry": { "type": "Polygon", "coordinates": [ [ [ -77.529889, 38.557627 ], [ -77.499572, 38.580311 ], [ -77.497018, 38.583791 ], [ -77.496855, 38.58648 ], [ -77.491821, 38.590645 ], [ -77.487481, 38.591845 ], [ -77.485089, 38.592277 ], [ -77.483599, 38.591059 ], [ -77.480954, 38.592571 ], [ -77.479969, 38.591865 ], [ -77.476847, 38.592286 ], [ -77.473734, 38.590086 ], [ -77.471612, 38.589462 ], [ -77.471082, 38.587022 ], [ -77.470241, 38.585735 ], [ -77.468744, 38.585247 ], [ -77.468428, 38.583781 ], [ -77.467009, 38.58279 ], [ -77.466707, 38.581346 ], [ -77.465497, 38.58088 ], [ -77.464079, 38.578676 ], [ -77.461532, 38.579408 ], [ -77.459115, 38.579487 ], [ -77.457014, 38.580275 ], [ -77.455918, 38.581018 ], [ -77.454429, 38.58064 ], [ -77.448793, 38.581284 ], [ -77.447566, 38.58093 ], [ -77.446615, 38.579402 ], [ -77.446633, 38.577216 ], [ -77.444977, 38.575766 ], [ -77.441769, 38.574727 ], [ -77.440167, 38.573348 ], [ -77.437899, 38.573442 ], [ -77.436677, 38.572783 ], [ -77.435536, 38.570473 ], [ -77.433195, 38.569966 ], [ -77.432188, 38.567745 ], [ -77.430294, 38.566044 ], [ -77.429018, 38.565897 ], [ -77.426657, 38.564609 ], [ -77.425965, 38.564997 ], [ -77.423407, 38.564348 ], [ -77.423269, 38.563089 ], [ -77.420978, 38.563652 ], [ -77.422209, 38.561419 ], [ -77.420322, 38.56152 ], [ -77.418525, 38.558725 ], [ -77.41565, 38.557868 ], [ -77.414758, 38.556187 ], [ -77.41218, 38.55663 ], [ -77.4099, 38.555363 ], [ -77.409282, 38.553492 ], [ -77.407033, 38.553974 ], [ -77.403101, 38.551686 ], [ -77.402245, 38.550594 ], [ -77.400316, 38.549558 ], [ -77.400746, 38.548393 ], [ -77.400807, 38.54762 ], [ -77.400437, 38.547847 ], [ -77.399605, 38.548062 ], [ -77.398838, 38.548127 ], [ -77.397405, 38.54775 ], [ -77.396863, 38.547635 ], [ -77.39539, 38.545948 ], [ -77.389991, 38.552557 ], [ -77.390139, 38.553066 ], [ -77.390056, 38.553564 ], [ -77.388062, 38.557813 ], [ -77.384624, 38.561096 ], [ -77.378802, 38.560857 ], [ -77.373028, 38.559156 ], [ -77.369101, 38.557579 ], [ -77.366568, 38.554778 ], [ -77.361591, 38.554738 ], [ -77.359528, 38.553285 ], [ -77.356471, 38.552326 ], [ -77.357286, 38.550612 ], [ -77.357527, 38.545862 ], [ -77.359831, 38.531113 ], [ -77.359969, 38.530287 ], [ -77.353643, 38.535732 ], [ -77.353914, 38.53227 ], [ -77.355973, 38.526582 ], [ -77.35748, 38.52408 ], [ -77.344628, 38.537429 ], [ -77.342852, 38.538752 ], [ -77.340049, 38.540564 ], [ -77.336608, 38.54585 ], [ -77.335709, 38.545456 ], [ -77.333298, 38.544511 ], [ -77.332119, 38.543583 ], [ -77.328913, 38.542233 ], [ -77.327171, 38.539962 ], [ -77.326625, 38.539235 ], [ -77.326194, 38.538085 ], [ -77.325293, 38.536442 ], [ -77.322803, 38.534153 ], [ -77.321729, 38.532193 ], [ -77.320661, 38.531336 ], [ -77.318736, 38.530937 ], [ -77.313649, 38.531102 ], [ -77.311054, 38.530495 ], [ -77.311073, 38.531965 ], [ -77.310746, 38.5325 ], [ -77.310497, 38.532548 ], [ -77.310101, 38.53287 ], [ -77.308503, 38.534691 ], [ -77.307708, 38.537889 ], [ -77.308484, 38.539545 ], [ -77.307758, 38.541343 ], [ -77.303946, 38.547186 ], [ -77.301104, 38.54952 ], [ -77.297477, 38.546398 ], [ -77.294944, 38.544218 ], [ -77.289259, 38.539325 ], [ -77.285303, 38.53592 ], [ -77.287892, 38.53058 ], [ -77.2876, 38.529334 ], [ -77.286034294670998, 38.529138468524799 ], [ -77.286426309089705, 38.528027142685602 ], [ -77.286438, 38.527994 ], [ -77.283937, 38.527884 ], [ -77.282754, 38.526253 ], [ -77.283503, 38.525221 ], [ -77.285923, 38.522196 ], [ -77.286035, 38.522056 ], [ -77.286557, 38.519441 ], [ -77.288618, 38.519151 ], [ -77.291103, 38.515721 ], [ -77.293925, 38.516093 ], [ -77.297728, 38.514791 ], [ -77.2978348564708, 38.514611899821404 ], [ -77.299364457289997, 38.5120481638331 ], [ -77.299392, 38.512002 ], [ -77.299361581540396, 38.511502779397702 ], [ -77.299273, 38.510049 ], [ -77.296421, 38.509212 ], [ -77.29634, 38.507109 ], [ -77.299600250729696, 38.503276826390803 ], [ -77.299709, 38.503149 ], [ -77.303485, 38.499257 ], [ -77.306403401751396, 38.497714004594798 ], [ -77.308448, 38.496633 ], [ -77.310334, 38.493926 ], [ -77.310177, 38.492051 ], [ -77.315736, 38.48092 ], [ -77.315575, 38.478915 ], [ -77.315590149546793, 38.478889666913702 ], [ -77.317138, 38.479675 ], [ -77.317691, 38.48017 ], [ -77.321698, 38.480716 ], [ -77.32611, 38.482106 ], [ -77.328127, 38.483961 ], [ -77.32992, 38.48409 ], [ -77.339269, 38.486645 ], [ -77.340174, 38.487621 ], [ -77.344063, 38.488169 ], [ -77.3496, 38.489341 ], [ -77.352899, 38.488369 ], [ -77.353445, 38.490028 ], [ -77.359865, 38.492367 ], [ -77.361191, 38.493126 ], [ -77.363049, 38.495367 ], [ -77.365019, 38.498289 ], [ -77.36376, 38.50346 ], [ -77.362877, 38.513821 ], [ -77.362495, 38.51624 ], [ -77.364665, 38.516575 ], [ -77.361215, 38.520159 ], [ -77.36441, 38.520918 ], [ -77.365651, 38.519373 ], [ -77.36828, 38.519022 ], [ -77.371042, 38.520161 ], [ -77.371078, 38.520216 ], [ -77.374411, 38.515629 ], [ -77.377274, 38.508972 ], [ -77.378026, 38.508921 ], [ -77.380213, 38.502134 ], [ -77.38227, 38.497843 ], [ -77.385428, 38.493291 ], [ -77.392059, 38.485998 ], [ -77.392135, 38.485915 ], [ -77.394048, 38.486883 ], [ -77.395695, 38.487789 ], [ -77.398115, 38.487223 ], [ -77.400775, 38.488421 ], [ -77.404389, 38.487798 ], [ -77.409191, 38.488902 ], [ -77.414299, 38.48957 ], [ -77.415373, 38.491387 ], [ -77.418509, 38.492302 ], [ -77.42084, 38.492424 ], [ -77.419681, 38.493283 ], [ -77.420233, 38.494535 ], [ -77.42301, 38.495642 ], [ -77.424313, 38.495538 ], [ -77.424492, 38.495238 ], [ -77.424429, 38.494613 ], [ -77.424286, 38.494314 ], [ -77.423121, 38.492921 ], [ -77.423683, 38.492805 ], [ -77.424455, 38.493085 ], [ -77.424756, 38.493332 ], [ -77.425047, 38.493238 ], [ -77.425265, 38.491613 ], [ -77.430077, 38.493189 ], [ -77.430935, 38.493341 ], [ -77.431921, 38.492942 ], [ -77.433441, 38.490783 ], [ -77.4354, 38.487097 ], [ -77.439036, 38.488394 ], [ -77.441562, 38.487254 ], [ -77.442426, 38.487384 ], [ -77.445162, 38.486058 ], [ -77.445374, 38.486526 ], [ -77.445024, 38.487341 ], [ -77.444831, 38.488438 ], [ -77.445676, 38.493814 ], [ -77.447377, 38.49285 ], [ -77.447614, 38.494482 ], [ -77.450462, 38.49584 ], [ -77.451273, 38.49769 ], [ -77.455059, 38.498237 ], [ -77.455829, 38.500544 ], [ -77.458606, 38.500596 ], [ -77.460891, 38.503267 ], [ -77.460543, 38.504312 ], [ -77.462206, 38.506161 ], [ -77.464479, 38.507206 ], [ -77.465378, 38.506715 ], [ -77.468554, 38.507615 ], [ -77.46622, 38.508792 ], [ -77.465157, 38.51242 ], [ -77.464012, 38.513627 ], [ -77.464323, 38.513817 ], [ -77.477225, 38.522269 ], [ -77.489701, 38.527025 ], [ -77.490759, 38.527912 ], [ -77.491645, 38.534512 ], [ -77.491622, 38.539055 ], [ -77.492184, 38.540228 ], [ -77.499166, 38.543879 ], [ -77.501307, 38.5443 ], [ -77.507214, 38.544163 ], [ -77.513287, 38.545901 ], [ -77.515084, 38.547235 ], [ -77.521991, 38.551216 ], [ -77.52456, 38.553398 ], [ -77.525877, 38.555646 ], [ -77.529889, 38.557627 ] ] ] } },
{ "type": "Feature", "properties": { "ZIP": "22172" }, "geometry": { "type": "Polygon", "coordinates": [ [ [ -77.466036, 38.603643 ], [ -77.456108, 38.60448 ], [ -77.455021, 38.606387 ], [ -77.452601, 38.6091 ], [ -77.452559, 38.610061 ], [ -77.44782, 38.613046 ], [ -77.447384, 38.614021 ], [ -77.448367, 38.616555 ], [ -77.44723, 38.620791 ], [ -77.447889, 38.624133 ], [ -77.446528, 38.626524 ], [ -77.439216, 38.624686 ], [ -77.437439, 38.624752 ], [ -77.436895, 38.623663 ], [ -77.436099, 38.619459 ], [ -77.435135, 38.617032 ], [ -77.433772, 38.615539 ], [ -77.433136, 38.613811 ], [ -77.429968, 38.612066 ], [ -77.426639, 38.608345 ], [ -77.42335, 38.606702 ], [ -77.422813, 38.605977 ], [ -77.418219, 38.603669 ], [ -77.407431, 38.599003 ], [ -77.40529, 38.598596 ], [ -77.404774, 38.597677 ], [ -77.4013, 38.598396 ], [ -77.399589, 38.598074 ], [ -77.397266, 38.598928 ], [ -77.39384, 38.599044 ], [ -77.392066, 38.59842 ], [ -77.390139, 38.596888 ], [ -77.387919, 38.597147 ], [ -77.385173, 38.596227 ], [ -77.380576, 38.597158 ], [ -77.378076, 38.596812 ], [ -77.373923, 38.596868 ], [ -77.370625, 38.592578 ], [ -77.369694, 38.589073 ], [ -77.367248, 38.586776 ], [ -77.365624, 38.584315 ], [ -77.363924, 38.580738 ], [ -77.364229, 38.579391 ], [ -77.361538, 38.577421 ], [ -77.356919, 38.57688 ], [ -77.354605, 38.575605 ], [ -77.352437, 38.575396 ], [ -77.350865, 38.574146 ], [ -77.347911, 38.573349 ], [ -77.34686, 38.571889 ], [ -77.343335, 38.570162 ], [ -77.345282, 38.568957 ], [ -77.342508, 38.568087 ], [ -77.342876, 38.566251 ], [ -77.341277, 38.564987 ], [ -77.340117, 38.564537 ], [ -77.339008, 38.566086 ], [ -77.337979, 38.56493 ], [ -77.336909, 38.566648 ], [ -77.335106, 38.568343 ], [ -77.334872, 38.568178 ], [ -77.337375, 38.564732 ], [ -77.340065, 38.557891 ], [ -77.33913, 38.558108 ], [ -77.335674, 38.555682 ], [ -77.334263, 38.556916 ], [ -77.333528, 38.558409 ], [ -77.331822, 38.558206 ], [ -77.331422, 38.559605 ], [ -77.330404, 38.560776 ], [ -77.326476, 38.558629 ], [ -77.324093, 38.561561 ], [ -77.322217, 38.560191 ], [ -77.321163, 38.561146 ], [ -77.319337, 38.562895 ], [ -77.31887, 38.563166 ], [ -77.317987, 38.561906 ], [ -77.316092, 38.559769 ], [ -77.314058, 38.559161 ], [ -77.310998, 38.559507 ], [ -77.3077, 38.560484 ], [ -77.306251, 38.560804 ], [ -77.304841, 38.559642 ], [ -77.303029, 38.555469 ], [ -77.301638, 38.555233 ], [ -77.301846, 38.554932 ], [ -77.302952, 38.553327 ], [ -77.300519, 38.550032 ], [ -77.301104, 38.54952 ], [ -77.303946, 38.547186 ], [ -77.307758, 38.541343 ], [ -77.308484, 38.539545 ], [ -77.307708, 38.537889 ], [ -77.308503, 38.534691 ], [ -77.310101, 38.53287 ], [ -77.310497, 38.532548 ], [ -77.310746, 38.5325 ], [ -77.311073, 38.531965 ], [ -77.311054, 38.530495 ], [ -77.313649, 38.531102 ], [ -77.318736, 38.530937 ], [ -77.320661, 38.531336 ], [ -77.321729, 38.532193 ], [ -77.322803, 38.534153 ], [ -77.325293, 38.536442 ], [ -77.326194, 38.538085 ], [ -77.326625, 38.539235 ], [ -77.327171, 38.539962 ], [ -77.328913, 38.542233 ], [ -77.332119, 38.543583 ], [ -77.333298, 38.544511 ], [ -77.335709, 38.545456 ], [ -77.336608, 38.54585 ], [ -77.340049, 38.540564 ], [ -77.342852, 38.538752 ], [ -77.344628, 38.537429 ], [ -77.35748, 38.52408 ], [ -77.355973, 38.526582 ], [ -77.353914, 38.53227 ], [ -77.353643, 38.535732 ], [ -77.359969, 38.530287 ], [ -77.359831, 38.531113 ], [ -77.357527, 38.545862 ], [ -77.357286, 38.550612 ], [ -77.356471, 38.552326 ], [ -77.359528, 38.553285 ], [ -77.361591, 38.554738 ], [ -77.366568, 38.554778 ], [ -77.369101, 38.557579 ], [ -77.373028, 38.559156 ], [ -77.378802, 38.560857 ], [ -77.384624, 38.561096 ], [ -77.388062, 38.557813 ], [ -77.390056, 38.553564 ], [ -77.390139, 38.553066 ], [ -77.389991, 38.552557 ], [ -77.39539, 38.545948 ], [ -77.396863, 38.547635 ], [ -77.397405, 38.54775 ], [ -77.398838, 38.548127 ], [ -77.399605, 38.548062 ], [ -77.400437, 38.547847 ], [ -77.400807, 38.54762 ], [ -77.400746, 38.548393 ], [ -77.400316, 38.549558 ], [ -77.402245, 38.550594 ], [ -77.403101, 38.551686 ], [ -77.407033, 38.553974 ], [ -77.409282, 38.553492 ], [ -77.4099, 38.555363 ], [ -77.41218, 38.55663 ], [ -77.414758, 38.556187 ], [ -77.41565, 38.557868 ], [ -77.418525, 38.558725 ], [ -77.420322, 38.56152 ], [ -77.422209, 38.561419 ], [ -77.420978, 38.563652 ], [ -77.423269, 38.563089 ], [ -77.423407, 38.564348 ], [ -77.425965, 38.564997 ], [ -77.426657, 38.564609 ], [ -77.429018, 38.565897 ], [ -77.430294, 38.566044 ], [ -77.432188, 38.567745 ], [ -77.433195, 38.569966 ], [ -77.435536, 38.570473 ], [ -77.436677, 38.572783 ], [ -77.437899, 38.573442 ], [ -77.440167, 38.573348 ], [ -77.441769, 38.574727 ], [ -77.444977, 38.575766 ], [ -77.446633, 38.577216 ], [ -77.446615, 38.579402 ], [ -77.447566, 38.58093 ], [ -77.448793, 38.581284 ], [ -77.454429, 38.58064 ], [ -77.455918, 38.581018 ], [ -77.457014, 38.580275 ], [ -77.457054, 38.585016 ], [ -77.45645, 38.585935 ], [ -77.453658, 38.587571 ], [ -77.448808, 38.588686 ], [ -77.446282, 38.590108 ], [ -77.447403, 38.590527 ], [ -77.453528, 38.590976 ], [ -77.458361, 38.59321 ], [ -77.461281, 38.594117 ], [ -77.462642, 38.599605 ], [ -77.466036, 38.603643 ] ] ] } },
{ "type": "Feature", "properties": { "ZIP": "22191" }, "geometry": { "type": "Polygon", "coordinates": [ [ [ -77.311084, 38.603536 ], [ -77.307986, 38.60654 ], [ -77.303054, 38.611 ], [ -77.300922, 38.612973 ], [ -77.300098, 38.613907 ], [ -77.298762, 38.615796 ], [ -77.292779, 38.628111 ], [ -77.292733, 38.628215 ], [ -77.289736, 38.636175 ], [ -77.285985, 38.644536 ], [ -77.280053, 38.655204 ], [ -77.279401, 38.654387 ], [ -77.276777, 38.655856 ], [ -77.279379, 38.656419 ], [ -77.275135, 38.663562 ], [ -77.272377, 38.66599 ], [ -77.269011, 38.667713 ], [ -77.263165, 38.668903 ], [ -77.260078, 38.669279 ], [ -77.259015, 38.669408 ], [ -77.252814, 38.670293 ], [ -77.25014, 38.670836 ], [ -77.245387, 38.672129 ], [ -77.244085, 38.671365 ], [ -77.240631, 38.667749 ], [ -77.240352, 38.667451 ], [ -77.239495, 38.666534 ], [ -77.233897244892802, 38.661335532252103 ], [ -77.235577329541002, 38.660293380735197 ], [ -77.235931, 38.660074 ], [ -77.235740941233502, 38.659824393364502 ], [ -77.233317, 38.656641 ], [ -77.232532438444807, 38.656041869597701 ], [ -77.227969, 38.652557 ], [ -77.226564378308794, 38.650875 ], [ -77.224404, 38.648288 ], [ -77.223928, 38.645968 ], [ -77.224404, 38.644761 ], [ -77.226068, 38.642348 ], [ -77.227375, 38.640491 ], [ -77.227594793409295, 38.639890323795299 ], [ -77.228326, 38.637892 ], [ -77.231249, 38.636947 ], [ -77.234199, 38.636561 ], [ -77.237213, 38.637772 ], [ -77.238515, 38.638852 ], [ -77.240448345904099, 38.638912156765798 ], [ -77.240604, 38.638917 ], [ -77.241016532100801, 38.638733918893202 ], [ -77.244216, 38.637314 ], [ -77.246108600457404, 38.635718829919902 ], [ -77.246704, 38.635217 ], [ -77.248087, 38.632313 ], [ -77.248904, 38.628617 ], [ -77.248403, 38.626309 ], [ -77.246943215826803, 38.624432540671499 ], [ -77.246829679071197, 38.624286596422998 ], [ -77.245835, 38.623008 ], [ -77.245104, 38.620717 ], [ -77.246152, 38.61756 ], [ -77.247808, 38.612638 ], [ -77.2497, 38.611355 ], [ -77.249751321426501, 38.610301092281198 ], [ -77.2498042306744, 38.609214577961097 ], [ -77.249954, 38.606139 ], [ -77.251975, 38.604281 ], [ -77.254946, 38.60326 ], [ -77.256372, 38.600845 ], [ -77.256391174471304, 38.600560605530902 ], [ -77.256400629282794, 38.600420372402702 ], [ -77.256479613428994, 38.599248884855903 ], [ -77.256491, 38.59908 ], [ -77.254708, 38.595829 ], [ -77.251208, 38.593463 ], [ -77.24681, 38.593994 ], [ -77.247003, 38.590618 ], [ -77.255304, 38.586915 ], [ -77.25795, 38.583396 ], [ -77.260515, 38.584591 ], [ -77.263859, 38.585054 ], [ -77.264182019642305, 38.5838043495798 ], [ -77.265103, 38.584093 ], [ -77.267224, 38.582603 ], [ -77.271405, 38.583504 ], [ -77.272312, 38.584705 ], [ -77.272176, 38.585939 ], [ -77.277596, 38.587205 ], [ -77.277226, 38.586786 ], [ -77.27986, 38.586647 ], [ -77.280596, 38.586699 ], [ -77.284174, 38.58591 ], [ -77.289019, 38.584617 ], [ -77.291767, 38.582125 ], [ -77.294694, 38.578259 ], [ -77.294017, 38.5764 ], [ -77.295829, 38.57566 ], [ -77.296166, 38.575296 ], [ -77.297835, 38.576001 ], [ -77.298621, 38.576524 ], [ -77.299308, 38.577219 ], [ -77.301453, 38.579666 ], [ -77.302148, 38.580125 ], [ -77.300616, 38.581464 ], [ -77.300429, 38.582013 ], [ -77.305835, 38.587825 ], [ -77.305909, 38.587931 ], [ -77.301928, 38.592507 ], [ -77.301533, 38.59295 ], [ -77.304447, 38.594394 ], [ -77.305912, 38.595342 ], [ -77.30667, 38.595201 ], [ -77.308064, 38.594146 ], [ -77.306529, 38.598619 ], [ -77.30818, 38.600988 ], [ -77.31194, 38.602408 ], [ -77.311084, 38.603536 ] ] ] } },
{ "type": "Feature", "properties": { "ZIP": "22192" }, "geometry": { "type": "Polygon", "coordinates": [ [ [ -77.385555, 38.699851 ], [ -77.383271, 38.699541 ], [ -77.379989, 38.700976 ], [ -77.378616, 38.69954 ], [ -77.377625, 38.700953 ], [ -77.37784, 38.702682 ], [ -77.379076, 38.704437 ], [ -77.378725, 38.70652 ], [ -77.377347, 38.708509 ], [ -77.374341, 38.711723 ], [ -77.37121, 38.710314 ], [ -77.368746, 38.70981 ], [ -77.366928, 38.710994 ], [ -77.366342, 38.712984 ], [ -77.365213, 38.714039 ], [ -77.362829, 38.71468 ], [ -77.362706, 38.71158 ], [ -77.361575, 38.711723 ], [ -77.362204, 38.711881 ], [ -77.362268, 38.714675 ], [ -77.363494, 38.715363 ], [ -77.361427, 38.720439 ], [ -77.360757, 38.721669 ], [ -77.360395, 38.722262 ], [ -77.359123, 38.723761 ], [ -77.356678, 38.725443 ], [ -77.355884, 38.725425 ], [ -77.352344, 38.722226 ], [ -77.348981, 38.721193 ], [ -77.344381, 38.721055 ], [ -77.341903, 38.720084 ], [ -77.335378, 38.719453 ], [ -77.332694, 38.71838 ], [ -77.332296, 38.716525 ], [ -77.332964, 38.712791 ], [ -77.331638, 38.7113 ], [ -77.330039, 38.711158 ], [ -77.325521, 38.712571 ], [ -77.322446, 38.712458 ], [ -77.320233, 38.710842 ], [ -77.320492, 38.709411 ], [ -77.323521, 38.708057 ], [ -77.326908, 38.704131 ], [ -77.326963, 38.703104 ], [ -77.326141, 38.702046 ], [ -77.324705, 38.701544 ], [ -77.317154, 38.701208 ], [ -77.316347, 38.701173 ], [ -77.313478, 38.701754 ], [ -77.310191, 38.705618 ], [ -77.308567, 38.706727 ], [ -77.306868, 38.707541 ], [ -77.304018, 38.708091 ], [ -77.302847, 38.707944 ], [ -77.30109, 38.706832 ], [ -77.299868, 38.705162 ], [ -77.298759, 38.704329 ], [ -77.294163, 38.702785 ], [ -77.287121, 38.69937 ], [ -77.282404, 38.696468 ], [ -77.281142, 38.695845 ], [ -77.279262, 38.695361 ], [ -77.276383, 38.694588 ], [ -77.274194, 38.693672 ], [ -77.273305, 38.692882 ], [ -77.271813, 38.691462 ], [ -77.266055, 38.68781 ], [ -77.265128, 38.687099 ], [ -77.263422, 38.686389 ], [ -77.264026, 38.685273 ], [ -77.265487, 38.682732 ], [ -77.264872, 38.682063 ], [ -77.260551, 38.677533 ], [ -77.259971, 38.677745 ], [ -77.257938, 38.679338 ], [ -77.258377, 38.681308 ], [ -77.25833, 38.681938 ], [ -77.25618, 38.680153 ], [ -77.25478, 38.681178 ], [ -77.252099, 38.677835 ], [ -77.250363, 38.674154 ], [ -77.249857, 38.673796 ], [ -77.245756, 38.672273 ], [ -77.245387, 38.672129 ], [ -77.25014, 38.670836 ], [ -77.252814, 38.670293 ], [ -77.259015, 38.669408 ], [ -77.260078, 38.669279 ], [ -77.263165, 38.668903 ], [ -77.269011, 38.667713 ], [ -77.272377, 38.66599 ], [ -77.275135, 38.663562 ], [ -77.279379, 38.656419 ], [ -77.276777, 38.655856 ], [ -77.279401, 38.654387 ], [ -77.280053, 38.655204 ], [ -77.285985, 38.644536 ], [ -77.289736, 38.636175 ], [ -77.292733, 38.628215 ], [ -77.292779, 38.628111 ], [ -77.293421, 38.628235 ], [ -77.293375, 38.628338 ], [ -77.29547, 38.628649 ], [ -77.296621, 38.628563 ], [ -77.298835, 38.627756 ], [ -77.297325, 38.628725 ], [ -77.296351, 38.631958 ], [ -77.297114, 38.633306 ], [ -77.299967, 38.632361 ], [ -77.30062, 38.633885 ], [ -77.299323, 38.636554 ], [ -77.298413, 38.637826 ], [ -77.29836, 38.6383 ], [ -77.299854, 38.63999 ], [ -77.301457, 38.64411 ], [ -77.301267, 38.644143 ], [ -77.30189, 38.645822 ], [ -77.302242, 38.65097 ], [ -77.302337, 38.651103 ], [ -77.303853, 38.65049 ], [ -77.306299, 38.648815 ], [ -77.308219, 38.650729 ], [ -77.309863, 38.649915 ], [ -77.308864, 38.65137 ], [ -77.305234, 38.65285 ], [ -77.308052, 38.655043 ], [ -77.308674, 38.654748 ], [ -77.31195, 38.654044 ], [ -77.314545, 38.653153 ], [ -77.316775, 38.652711 ], [ -77.317653, 38.654433 ], [ -77.318564, 38.65523 ], [ -77.324651, 38.659911 ], [ -77.325186, 38.660329 ], [ -77.325961, 38.661107 ], [ -77.327569, 38.663317 ], [ -77.328405, 38.663938 ], [ -77.330941, 38.665582 ], [ -77.332236, 38.666434 ], [ -77.332816, 38.666947 ], [ -77.334813, 38.670555 ], [ -77.335491, 38.671276 ], [ -77.336321, 38.672058 ], [ -77.33641, 38.673009 ], [ -77.337425, 38.673315 ], [ -77.344521, 38.676281 ], [ -77.347659, 38.677593 ], [ -77.347086, 38.675883 ], [ -77.348605, 38.67641 ], [ -77.347487, 38.669975 ], [ -77.347999, 38.669402 ], [ -77.349832, 38.669709 ], [ -77.355092, 38.669118 ], [ -77.35638, 38.668469 ], [ -77.357889, 38.669267 ], [ -77.355637, 38.671525 ], [ -77.353948, 38.672134 ], [ -77.353283, 38.672329 ], [ -77.35478, 38.672995 ], [ -77.35622, 38.67529 ], [ -77.357318, 38.678881 ], [ -77.358942, 38.679623 ], [ -77.359853, 38.681165 ], [ -77.360047, 38.681253 ], [ -77.363369, 38.682242 ], [ -77.370663, 38.683485 ], [ -77.376716, 38.6865 ], [ -77.376082, 38.687477 ], [ -77.376889, 38.692788 ], [ -77.382081, 38.692968 ], [ -77.384123, 38.694519 ], [ -77.385451, 38.697568 ], [ -77.387593, 38.698348 ], [ -77.385555, 38.699851 ] ] ] } },
{ "type": "Feature", "properties": { "ZIP": "22193" }, "geometry": { "type": "Polygon", "coordinates": [ [ [ -77.403638, 38.639804 ], [ -77.401201, 38.641373 ], [ -77.39708, 38.642735 ], [ -77.395857, 38.644648 ], [ -77.400965, 38.645395 ], [ -77.400836, 38.647118 ], [ -77.398998, 38.646995 ], [ -77.395128, 38.648193 ], [ -77.39374, 38.64708 ], [ -77.391745, 38.649618 ], [ -77.38985, 38.649411 ], [ -77.389049, 38.650972 ], [ -77.387019, 38.649413 ], [ -77.384748, 38.645907 ], [ -77.384629, 38.645958 ], [ -77.386539, 38.649078 ], [ -77.389072, 38.651132 ], [ -77.387909, 38.654046 ], [ -77.388999, 38.652851 ], [ -77.391044, 38.656673 ], [ -77.396065, 38.656413 ], [ -77.397663, 38.659244 ], [ -77.398045, 38.659724 ], [ -77.395807, 38.66049 ], [ -77.396223, 38.661282 ], [ -77.392695, 38.661445 ], [ -77.394295, 38.665459 ], [ -77.397842, 38.665578 ], [ -77.39994, 38.664917 ], [ -77.401368, 38.666622 ], [ -77.401802, 38.667451 ], [ -77.402553, 38.669021 ], [ -77.4008, 38.669737 ], [ -77.396994, 38.671731 ], [ -77.396108, 38.672107 ], [ -77.395149, 38.67242 ], [ -77.38993, 38.673367 ], [ -77.383318, 38.674446 ], [ -77.382961, 38.672206 ], [ -77.383778, 38.667866 ], [ -77.370444, 38.671793 ], [ -77.371303, 38.675153 ], [ -77.368605, 38.676132 ], [ -77.367046, 38.676695 ], [ -77.364979, 38.677481 ], [ -77.363761, 38.678132 ], [ -77.360379, 38.680538 ], [ -77.359853, 38.681165 ], [ -77.358942, 38.679623 ], [ -77.357318, 38.678881 ], [ -77.35622, 38.67529 ], [ -77.35478, 38.672995 ], [ -77.353283, 38.672329 ], [ -77.353948, 38.672134 ], [ -77.355637, 38.671525 ], [ -77.357889, 38.669267 ], [ -77.35638, 38.668469 ], [ -77.355092, 38.669118 ], [ -77.349832, 38.669709 ], [ -77.347999, 38.669402 ], [ -77.347487, 38.669975 ], [ -77.348605, 38.67641 ], [ -77.347086, 38.675883 ], [ -77.347659, 38.677593 ], [ -77.344521, 38.676281 ], [ -77.337425, 38.673315 ], [ -77.33641, 38.673009 ], [ -77.336321, 38.672058 ], [ -77.335491, 38.671276 ], [ -77.334813, 38.670555 ], [ -77.332816, 38.666947 ], [ -77.332236, 38.666434 ], [ -77.330941, 38.665582 ], [ -77.328405, 38.663938 ], [ -77.327569, 38.663317 ], [ -77.325961, 38.661107 ], [ -77.325186, 38.660329 ], [ -77.324651, 38.659911 ], [ -77.318564, 38.65523 ], [ -77.317653, 38.654433 ], [ -77.316775, 38.652711 ], [ -77.314545, 38.653153 ], [ -77.31195, 38.654044 ], [ -77.308674, 38.654748 ], [ -77.308052, 38.655043 ], [ -77.305234, 38.65285 ], [ -77.308864, 38.65137 ], [ -77.309863, 38.649915 ], [ -77.308219, 38.650729 ], [ -77.306299, 38.648815 ], [ -77.303853, 38.65049 ], [ -77.302337, 38.651103 ], [ -77.302242, 38.65097 ], [ -77.30189, 38.645822 ], [ -77.301267, 38.644143 ], [ -77.301457, 38.64411 ], [ -77.299854, 38.63999 ], [ -77.29836, 38.6383 ], [ -77.298413, 38.637826 ], [ -77.299323, 38.636554 ], [ -77.30062, 38.633885 ], [ -77.299967, 38.632361 ], [ -77.297114, 38.633306 ], [ -77.296351, 38.631958 ], [ -77.297325, 38.628725 ], [ -77.298835, 38.627756 ], [ -77.296621, 38.628563 ], [ -77.29547, 38.628649 ], [ -77.293375, 38.628338 ], [ -77.293421, 38.628235 ], [ -77.292779, 38.628111 ], [ -77.298762, 38.615796 ], [ -77.300098, 38.613907 ], [ -77.300922, 38.612973 ], [ -77.303054, 38.611 ], [ -77.307986, 38.60654 ], [ -77.309919, 38.606803 ], [ -77.3118, 38.60826 ], [ -77.317113, 38.60325 ], [ -77.323253, 38.603068 ], [ -77.323041, 38.604434 ], [ -77.322524, 38.604869 ], [ -77.321422, 38.60719 ], [ -77.318968, 38.609445 ], [ -77.321522, 38.609475 ], [ -77.323231, 38.612343 ], [ -77.326762, 38.614907 ], [ -77.326393, 38.61596 ], [ -77.327258, 38.616195 ], [ -77.328956, 38.611688 ], [ -77.335166, 38.613855 ], [ -77.3351, 38.615284 ], [ -77.335236, 38.617147 ], [ -77.333997, 38.620938 ], [ -77.340567, 38.619298 ], [ -77.343206, 38.623539 ], [ -77.344475, 38.62428 ], [ -77.346207, 38.626287 ], [ -77.348035, 38.628873 ], [ -77.356519, 38.628969 ], [ -77.357386, 38.626369 ], [ -77.361093, 38.627085 ], [ -77.360569, 38.624866 ], [ -77.359007, 38.618727 ], [ -77.361084, 38.617965 ], [ -77.361962, 38.618046 ], [ -77.363403, 38.617756 ], [ -77.362005, 38.612931 ], [ -77.363443, 38.609465 ], [ -77.366997, 38.61104 ], [ -77.367896, 38.611337 ], [ -77.367878, 38.612103 ], [ -77.370553, 38.614419 ], [ -77.370888, 38.615587 ], [ -77.372489, 38.617745 ], [ -77.374185, 38.618007 ], [ -77.376348, 38.616727 ], [ -77.378331, 38.617011 ], [ -77.379815, 38.618695 ], [ -77.385779, 38.622028 ], [ -77.386406, 38.624701 ], [ -77.388728, 38.626724 ], [ -77.391261, 38.626787 ], [ -77.394375, 38.628723 ], [ -77.395001, 38.630474 ], [ -77.397288, 38.632247 ], [ -77.397768, 38.632439 ], [ -77.399569, 38.63517 ], [ -77.399129, 38.636478 ], [ -77.399076, 38.636569 ], [ -77.401186, 38.638932 ], [ -77.403199, 38.639456 ], [ -77.403638, 38.639804 ] ] ] } }
]
}
